FID,OBJECTID,ID,NAME,TELEPHONE,ADDRESS,ADDRESS2,CITY,STATE,ZIP,ZIPP4,COUNTY,FIPS,DIRECTIONS,EMERGTITLE,EMERGTEL,EMERGEXT,CONTDATE,CONTHOW,GEODATE,GEOHOW,HSIPTHEMES,NAICSCODE,NAICSDESCR,GEOLINKID,X,Y,ST_VENDOR,ST_VERSION,GEOPREC,PHONELOC,QC_QA,UCAOA_ID
0,1000,10422146,GERMANTOWN MINOR MEDICAL,901-754-8880,2018 SOUTH GERMANTOWN ROAD, ,GERMANTOWN,TN,38138,2844,SHELBY,47157,"LOC ON THE SOUTHEAST SIDE OF S GERMANSTOWN RD, APPR .1 MILES NORTHEAST OF W POPLAR AVE.", , , ,2009-02-09T00:00:00.000Z,PHONE,2009-02-09T00:00:00.000Z,MANUAL,"CRITICAL INFRASTRUCTURE, PDD-63; PUBLIC HEALTH; PRIMARY CARE FACILITIES (INCLUDING HOSPITALS); AMBULATORY SURGICAL FACILITIES",621493,"URGENT MEDICAL CARE CENTERS AND CLINICS (EXCEPT HOSPITALS), FREESTANDING",24932292,-89.8071784,35.0940524,NAVTEQ,2008Q1,ONENTITY,YES,TGS,UC_3332
1,1045,11513132,WICKMAN FAMILY MEDICAL CARE,901-377-3001,8485 UNITED STATES HIGHWAY 64, ,MEMPHIS,TN,38133, ,SHELBY,47157,"LOC ON THE SOUTH SIDE OF US-64, APPR .1 MILES WEST OF NEW BRUNSWICK RD.", , , ,2009-02-11T00:00:00.000Z,PHONE,2009-02-11T00:00:00.000Z,MANUAL,"CRITICAL INFRASTRUCTURE, PDD-63; PUBLIC HEALTH; PRIMARY CARE FACILITIES (INCLUDING HOSPITALS); AMBULATORY SURGICAL FACILITIES",621493,"URGENT MEDICAL CARE CENTERS AND CLINICS (EXCEPT HOSPITALS), FREESTANDING",27836158,-89.7792558,35.203563,NAVTEQ,2008Q1,ONENTITY,YES,TGS, 
2,1059,10468047,BAPTIST MEMORIAL HEALTH CARE MINOR MEDICAL CENTER - MEMPHIS,901-327-8188,3295 POPLAR AVENUE,SUITE 105,MEMPHIS,TN,38111,4690,SHELBY,47157,"LOC ON THE SOUTH SIDE OF POPLAR AVE, BETWEEN S HOLMES ST & PALISADE ST.", , , ,2009-02-09T00:00:00.000Z,PHONE,2009-02-09T00:00:00.000Z,MANUAL,"CRITICAL INFRASTRUCTURE, PDD-63; PUBLIC HEALTH; PRIMARY CARE FACILITIES (INCLUDING HOSPITALS); AMBULATORY SURGICAL FACILITIES",621493,"URGENT MEDICAL CARE CENTERS AND CLINICS (EXCEPT HOSPITALS), FREESTANDING",24943924,-89.9524379,35.1291921,NAVTEQ,2008Q1,ONENTITY,YES,TGS, 
3,1252,10470877,UNION CITY URGENT CARE,731-885-8282,1229 SOUTH 1ST STREET, ,UNION CITY,TN,38261,5014,OBION,47131,ON THE W SIDE OF S 1ST ST BETWEEN E REELFOOT AVE AND E WADE ST., , , ,2008-03-17T00:00:00.000Z,PHONE,2008-03-17T00:00:00.000Z,MANUAL,"CRITICAL INFRASTRUCTURE, PDD-63; PUBLIC HEALTH; PRIMARY CARE FACILITIES (INCLUDING HOSPITALS); AMBULATORY SURGICAL FACILITIES",621493,"URGENT MEDICAL CARE CENTERS AND CLINICS (EXCEPT HOSPITALS), FREESTANDING",91110021,-89.0583289,36.4156973,NAVTEQ,2008Q1,BLOCKFACE,YES,TGS, 
4,1293,11513126,LE BONHEUR URGENT CARE CENTER - CORDOVA,901-758-6000,8035 CLUB PARKWAY, ,CORDOVA,TN,38016,5977,SHELBY,47157,LOC ON THE NORTHEAST CORNER OF THE INTERSECTION OF COUNTRY VILLAGE DR & N GERMANTOWN PKY., , , ,2009-02-11T00:00:00.000Z,PHONE,2009-02-11T00:00:00.000Z,MANUAL,"CRITICAL INFRASTRUCTURE, PDD-63; PUBLIC HEALTH; PRIMARY CARE FACILITIES (INCLUDING HOSPITALS); AMBULATORY SURGICAL FACILITIES",621493,"URGENT MEDICAL CARE CENTERS AND CLINICS (EXCEPT HOSPITALS), FREESTANDING",24923264,-89.7941923,35.1614831,NAVTEQ,2008Q1,ONENTITY,YES,TGS, 
5,1409,10470882,LE BONHEUR URGENT CARE CENTER - EAST MEMPHIS,901-287-4000,806 ESTATE PLACE, ,MEMPHIS,TN,38120,0600,SHELBY,47157,ON THE NE CORNER OF THE INTERSECTION OF ESTATE PL AND POPLAR AVE AND, , , ,2008-03-17T00:00:00.000Z,PHONE,2008-03-17T00:00:00.000Z,MANUAL,"CRITICAL INFRASTRUCTURE, PDD-63; PUBLIC HEALTH; PRIMARY CARE FACILITIES (INCLUDING HOSPITALS); AMBULATORY SURGICAL FACILITIES",621493,"URGENT MEDICAL CARE CENTERS AND CLINICS (EXCEPT HOSPITALS), FREESTANDING",24925886,-89.8839,35.1082244,NAVTEQ,2008Q1,BLOCKFACE,YES,TGS, 
6,1437,10844079,CONCENTRA URGENT CARE - MEMPHIS SOUTHEAST,901-365-1800,3965 SOUTH MENDENHALL ROAD,BUILDING G SUITE 6,MEMPHIS,TN,38115,5914,SHELBY,47157,LOC ON THE SOUTHWEST CORNER OF THE INTERSECTION OF SHARP PLAZA BLVD & S MENDENHALL RD., , , ,2009-02-09T00:00:00.000Z,PHONE,2009-02-09T00:00:00.000Z,MANUAL,"CRITICAL INFRASTRUCTURE, PDD-63; PUBLIC HEALTH; PRIMARY CARE FACILITIES (INCLUDING HOSPITALS); AMBULATORY SURGICAL FACILITIES",621493,"URGENT MEDICAL CARE CENTERS AND CLINICS (EXCEPT HOSPITALS), FREESTANDING",24929714,-89.8859953,35.0401833,NAVTEQ,2008Q1,ONENTITY,YES,TGS, 
7,1446,11513130,METHODIST MINOR MEDICAL CENTER - HACKS CROSS,901-756-6056,8071 WINCHESTER ROAD, ,MEMPHIS,TN,38125,8206,SHELBY,47157,"LOC ON THE SOUTH SIDE OF WINCHESTER RD, LESS THAN .1 MILES EAST OF HACKS CROSS RD.", , , ,2009-02-11T00:00:00.000Z,PHONE,2009-02-11T00:00:00.000Z,MANUAL,"CRITICAL INFRASTRUCTURE, PDD-63; PUBLIC HEALTH; PRIMARY CARE FACILITIES (INCLUDING HOSPITALS); AMBULATORY SURGICAL FACILITIES",621493,"URGENT MEDICAL CARE CENTERS AND CLINICS (EXCEPT HOSPITALS), FREESTANDING",126842715,-89.794055,35.0475346,NAVTEQ,2008Q1,ONENTITY,YES,TGS, 
8,1474,10422154,ROSSVILLE HEALTH CENTER,901-261-7303,4940 STATE HIGHWAY 57, ,ROSSVILLE,TN,38066, ,FAYETTE,47047,LOCATED AT THE SE CORNER OF ST HWY 57 AND KNOX ROAD., , , ,2008-01-25T00:00:00.000Z,PHONE,2008-01-25T00:00:00.000Z,MANUAL,"CRITICAL INFRASTRUCTURE, PDD-63; PUBLIC HEALTH; PRIMARY CARE FACILITIES (INCLUDING HOSPITALS); AMBULATORY SURGICAL FACILITIES",621493,"URGENT MEDICAL CARE CENTERS AND CLINICS (EXCEPT HOSPITALS), FREESTANDING",99868227,-89.5571237,35.0421698,NAVTEQ,2008Q1,BLOCKFACE,YES,TGS,UC_3368
9,1571,10194184,URGENT CARE CLINIC,731-285-2212,1950 COOK STREET,SUITE A,DYERSBURG,TN,38024,1899,DYER,47045,"LOCATED ON THE NORTHWEST SIDE OF US-51-BYP, BETWEEN COOK ST AND FLOWERING DOGWOOD LN.", , , ,2009-04-29T00:00:00.000Z,PHONE,2009-04-29T00:00:00.000Z,MANUAL,"CRITICAL INFRASTRUCTURE, PDD-63; PUBLIC HEALTH; PRIMARY CARE FACILITIES (INCLUDING HOSPITALS); AMBULATORY SURGICAL FACILITIES",621493,"URGENT MEDICAL CARE CENTERS AND CLINICS (EXCEPT HOSPITALS), FREESTANDING",98847169,-89.4045498,36.0525284,NAVTEQ,2008Q1,ONENTITY,YES,TGS,UC_3331
10,1575,11531135,DYERSBURG FAMILY WALK IN CLINIC,731-285-6110,2017 SAINT JOHN AVENUE,SUITE B,DYERSBURG,TN,38024,2209,DYER,47045,"LOCATED ON THE NORTHWEST SIDE OF ST JOHN AVE, BETWEEN LINDEN RD AND CROSSGATE RD.", , , ,2009-04-29T00:00:00.000Z,PHONE,2009-04-29T00:00:00.000Z,MANUAL,"CRITICAL INFRASTRUCTURE, PDD-63; PUBLIC HEALTH; PRIMARY CARE FACILITIES (INCLUDING HOSPITALS); AMBULATORY SURGICAL FACILITIES",621493,"URGENT MEDICAL CARE CENTERS AND CLINICS (EXCEPT HOSPITALS), FREESTANDING",91102656,-89.3570821,36.0575815,NAVTEQ,2008Q1,ONENTITY,YES,TGS, 
11,1589,11521672,METHODIST MINOR MEDICAL CENTER - MIDTOWN,901-722-3152,1803 UNION AVENUE,SUITE 1,MEMPHIS,TN,38104,3910,SHELBY,47157,SOUTHEAST CORNER OF THE INTERSECTION OF UNION AVE AND S IDLEWILD ST, , , ,2009-03-17T00:00:00.000Z,PHONE,2009-03-17T00:00:00.000Z,MANUAL,"CRITICAL INFRASTRUCTURE, PDD-63; PUBLIC HEALTH; PRIMARY CARE FACILITIES (INCLUDING HOSPITALS); AMBULATORY SURGICAL FACILITIES",621493,"URGENT MEDICAL CARE CENTERS AND CLINICS (EXCEPT HOSPITALS), FREESTANDING",24908892,-90.0013861,35.1348803,NAVTEQ,2008Q1,ONENTITY,YES,TGS, 
12,1616,10844080,CONCENTRA URGENT CARE - MEMPHIS PRESIDENTS ISLAND,901-946-1636,1005 HARBOR AVENUE, ,MEMPHIS,TN,38113, ,SHELBY,47157,"LOC ON THE SOUTHWEST CORNER OF THE THREE-WAY INTERSECTION OF HARBOR AVE, JACK CARLEY CSWY, & CHANNEL AVE.", , , ,2009-02-09T00:00:00.000Z,PHONE,2009-02-09T00:00:00.000Z,MANUAL,"CRITICAL INFRASTRUCTURE, PDD-63; PUBLIC HEALTH; PRIMARY CARE FACILITIES (INCLUDING HOSPITALS); AMBULATORY SURGICAL FACILITIES",621493,"URGENT MEDICAL CARE CENTERS AND CLINICS (EXCEPT HOSPITALS), FREESTANDING",24911025,-90.0885794,35.1081599,NAVTEQ,2008Q1,ONENTITY,YES,TGS, 
13,1680,11513129,METHODIST MINOR MEDICAL CENTER - CORDOVA,901-758-6035,8045 CLUB PARKWAY, ,CORDOVA,TN,38016,5977,SHELBY,47157,"LOC ON THE EAST SIDE OF N GERMANTOWN PKY, LESS THAN .1 MILES NORTH OF COUNTRY VILLAGE DR.", , , ,2009-02-11T00:00:00.000Z,PHONE,2009-02-11T00:00:00.000Z,MANUAL,"CRITICAL INFRASTRUCTURE, PDD-63; PUBLIC HEALTH; PRIMARY CARE FACILITIES (INCLUDING HOSPITALS); AMBULATORY SURGICAL FACILITIES",621493,"URGENT MEDICAL CARE CENTERS AND CLINICS (EXCEPT HOSPITALS), FREESTANDING",24923264,-89.7941427,35.1616993,NAVTEQ,2008Q1,ONENTITY,YES,TGS, 
14,1720,10843899,CONCENTRA URGENT CARE - MEMPHIS AIRPORT,901-348-0200,2831 AIRWAYS BOULEVARD,BUILDING A SUITE 102,MEMPHIS,TN,38132,1106,SHELBY,47157,"LOC ON THE NORTHWEST SIDE OF AIRWAYS BLVD, APPR .1 MILES SOUTHWEST OF DEMOCRAT RD.", , , ,2009-02-09T00:00:00.000Z,PHONE,2009-02-09T00:00:00.000Z,MANUAL,"CRITICAL INFRASTRUCTURE, PDD-63; PUBLIC HEALTH; PRIMARY CARE FACILITIES (INCLUDING HOSPITALS); AMBULATORY SURGICAL FACILITIES",621493,"URGENT MEDICAL CARE CENTERS AND CLINICS (EXCEPT HOSPITALS), FREESTANDING",24928223,-89.9891538,35.0671342,NAVTEQ,2008Q1,ONENTITY,YES,TGS, 
15,1785,10844542,BAPTIST MEMORIAL HEALTH CARE MINOR MEDICAL CENTER - BARTLETT,901-385-7817,7424 UNITED STATES HIGHWAY 64,SUITE 111,BARTLETT,TN,38133, ,SHELBY,47157,LOC ON THE NORTHWEST CORNER OF THE INTERSECTION OF US-64 & BROTHER BLVD., , , ,2009-02-09T00:00:00.000Z,PHONE,2009-02-09T00:00:00.000Z,MANUAL,"CRITICAL INFRASTRUCTURE, PDD-63; PUBLIC HEALTH; PRIMARY CARE FACILITIES (INCLUDING HOSPITALS); AMBULATORY SURGICAL FACILITIES",621493,"URGENT MEDICAL CARE CENTERS AND CLINICS (EXCEPT HOSPITALS), FREESTANDING",24947139,-89.8159246,35.2055574,NAVTEQ,2008Q1,ONENTITY,YES,TGS, 
16,1843,10192850,QUICKCARE URGENT CARE STATION,901-545-6580,880 MADISON AVENUE, ,MEMPHIS,TN,38103,3409,SHELBY,47157,"LOCATED ON NORTH SIDE OF MADISON AVE, BETWEEN NORTH DUNLAP ST AND HOSPITAL ST", , , ,2006-12-18T00:00:00.000Z,PHONE,2008-10-02T00:00:00.000Z,ADJUSTED,"CRITICAL INFRASTRUCTURE, PDD-63; PUBLIC HEALTH; PRIMARY CARE FACILITIES (INCLUDING HOSPITALS); AMBULATORY SURGICAL FACILITIES",621493,"URGENT MEDICAL CARE CENTERS AND CLINICS (EXCEPT HOSPITALS), FREESTANDING",24969306,-90.0323439,35.140712,NAVTEQ,2008Q1,BLOCKFACE,YES,TGS,UC_3362
17,1874,10468040,BAPTIST MEMORIAL HEALTH CARE MINOR MEDICAL CENTER - CORDOVA,901-753-7686,584 NORTH GERMANTOWN PARKWAY, ,CORDOVA,TN,38018,5211,SHELBY,47157,LOC ON THE SOUTHEAST CORNER OF THE INTERSECTION OF TRINITY RD & N GERMANTOWN PKY., , , ,2009-02-09T00:00:00.000Z,PHONE,2009-02-09T00:00:00.000Z,MANUAL,"CRITICAL INFRASTRUCTURE, PDD-63; PUBLIC HEALTH; PRIMARY CARE FACILITIES (INCLUDING HOSPITALS); AMBULATORY SURGICAL FACILITIES",621493,"URGENT MEDICAL CARE CENTERS AND CLINICS (EXCEPT HOSPITALS), FREESTANDING",24923938,-89.7937895,35.1411811,NAVTEQ,2008Q1,ONENTITY,YES,TGS, 
18,1952,11513123,LE BONHEUR URGENT CARE CENTER - MEMPHIS,901-759-2030,8071 WINCHESTER ROAD, ,MEMPHIS,TN,38125,8206,SHELBY,47157,"LOC ON THE SOUTH SIDE OF WINCHESTER RD, LESS THAN .1 MILES EAST OF HACKS CROSS RD.", , , ,2009-02-11T00:00:00.000Z,PHONE,2009-02-11T00:00:00.000Z,MANUAL,"CRITICAL INFRASTRUCTURE, PDD-63; PUBLIC HEALTH; PRIMARY CARE FACILITIES (INCLUDING HOSPITALS); AMBULATORY SURGICAL FACILITIES",621493,"URGENT MEDICAL CARE CENTERS AND CLINICS (EXCEPT HOSPITALS), FREESTANDING",126842715,-89.7940531,35.047533,NAVTEQ,2008Q1,ONENTITY,YES,TGS, 
19,4001,11513140,FARRAGUT WALK-IN CLINIC,865-671-6026,11408 KINGSTON PIKE, ,KNOXVILLE,TN,37934,3975,KNOX,47093,"LOC ON THE SOUTHEAST SIDE OF KINGSTON PIKE, APPR .1 MILES SOUTHWEST OF S CAMPBELL STATION RD.", , , ,2009-02-11T00:00:00.000Z,PHONE,2009-02-11T00:00:00.000Z,MANUAL,"CRITICAL INFRASTRUCTURE, PDD-63; PUBLIC HEALTH; PRIMARY CARE FACILITIES (INCLUDING HOSPITALS); AMBULATORY SURGICAL FACILITIES",621493,"URGENT MEDICAL CARE CENTERS AND CLINICS (EXCEPT HOSPITALS), FREESTANDING",24657452,-84.1615717,35.8801188,NAVTEQ,2008Q1,ONENTITY,YES,TGS, 
20,4010,11513134,DOCTORS CARE - KNOXVILLE,865-675-3311,101 GLENLEIGH COURT, ,KNOXVILLE,TN,37934,3052,KNOX,47093,LOC ON THE SOUTH CORNER OF THE T-INTERSECTION OF KINGSTON PIKE & GLENLEIGH CT., , , ,2009-02-11T00:00:00.000Z,PHONE,2009-02-11T00:00:00.000Z,MANUAL,"CRITICAL INFRASTRUCTURE, PDD-63; PUBLIC HEALTH; PRIMARY CARE FACILITIES (INCLUDING HOSPITALS); AMBULATORY SURGICAL FACILITIES",621493,"URGENT MEDICAL CARE CENTERS AND CLINICS (EXCEPT HOSPITALS), FREESTANDING",24658080,-84.1440084,35.8917447,NAVTEQ,2008Q1,ONENTITY,YES,TGS, 
21,4020,10425865,TENNESSEE URGENT CARE ASSOCIATES - ANTIOCH FACILITY,615-399-6898,2553 MURFREESBORO PIKE, ,NASHVILLE,TN,37217,3547,DAVIDSON,47037,LOCATED AT THE SOUTH CORNER OF DOVER GLEN DRIVE AND MURFREESBORO PIKE., , , ,2008-02-06T00:00:00.000Z,PHONE,2008-02-06T00:00:00.000Z,MANUAL,"CRITICAL INFRASTRUCTURE, PDD-63; PUBLIC HEALTH; PRIMARY CARE FACILITIES (INCLUDING HOSPITALS); AMBULATORY SURGICAL FACILITIES",621493,"URGENT MEDICAL CARE CENTERS AND CLINICS (EXCEPT HOSPITALS), FREESTANDING",31401939,-86.6410982,36.0765014,NAVTEQ,2008Q1,BLOCKFACE,YES,TGS, 
22,4065,10422148,PARK MED URGENT CARE CENTER - FORKS OF THE RIVER,865-637-7962,2725 EAST GOVERNOR JOHN SEVIER HIGHWAY, ,KNOXVILLE,TN,37914,6620,KNOX,47093,SOUTHEAST CORNER OF THE INTERSECTION OF EAST GOVERNOR JOHN SEVIER HIGHWAY AND E NATIONAL DRIVE, , , ,2008-01-28T00:00:00.000Z,PHONE,2008-01-28T00:00:00.000Z,MANUAL,"CRITICAL INFRASTRUCTURE, PDD-63; PUBLIC HEALTH; PRIMARY CARE FACILITIES (INCLUDING HOSPITALS); AMBULATORY SURGICAL FACILITIES",621493,"URGENT MEDICAL CARE CENTERS AND CLINICS (EXCEPT HOSPITALS), FREESTANDING",24648151,-83.8226144,35.9597923,NAVTEQ,2006Q4,ONENTITY,YES,TGS,UC_3340
23,4073,10192165,MEDICAL ASSISTANT PRIMARY AND URGENT CARE CLINIC,615-907-0123,951 NEW SALEM HIGHWAY, ,MURFREESBORO,TN,37129,3337,RUTHERFORD,47149,SOUTHEAST SIDE OF NEW SALEM HWY APROX .11 MILES NORTHEAST OF MIDDLE TENNESSEE BLVD, , , ,2006-12-19T00:00:00.000Z,PHONE,2006-12-19T00:00:00.000Z,MANUAL,"CRITICAL INFRASTRUCTURE, PDD-63; PUBLIC HEALTH; PRIMARY CARE FACILITIES (INCLUDING HOSPITALS); AMBULATORY SURGICAL FACILITIES",621493,"URGENT MEDICAL CARE CENTERS AND CLINICS (EXCEPT HOSPITALS), FREESTANDING",124172091,-86.4096399,35.8354688,NAVTEQ,2008Q1,BLOCKFACE,YES,TGS,UC_3365
24,4075,10422155,CONVENIENT CARE CLINIC,931-526-1050,350 SOUTH LOWE AVENUE,SUITE A,COOKEVILLE,TN,38501,4721,PUTNAM,47141,EAST SIDE OF S LOWE AVE BETWEEN BARON CIR AND E JACKSON STREET, , , ,2008-01-28T00:00:00.000Z,PHONE,2008-01-28T00:00:00.000Z,MANUAL,"CRITICAL INFRASTRUCTURE, PDD-63; PUBLIC HEALTH; PRIMARY CARE FACILITIES (INCLUDING HOSPITALS); AMBULATORY SURGICAL FACILITIES",621493,"URGENT MEDICAL CARE CENTERS AND CLINICS (EXCEPT HOSPITALS), FREESTANDING",123919574,-85.499028,36.1550583,NAVTEQ,2008Q1,BLOCKFACE,YES,TGS,UC_3369
25,4128,10468049,AMERICAS FAMILY DOCTORS WALK-IN CLINIC OF SMYRNA,615-373-2000,515 STONECREST PARKWAY,SUITE 100,SMYRNA,TN,37167,6827,RUTHERFORD,47149,ON THE W SIDE OF STONECREST PKY BETWEEN ROCK SPRINGS RD AND CEDAR GROVE RD., , , ,2008-03-14T00:00:00.000Z,PHONE,2008-03-14T00:00:00.000Z,MANUAL,"CRITICAL INFRASTRUCTURE, PDD-63; PUBLIC HEALTH; PRIMARY CARE FACILITIES (INCLUDING HOSPITALS); AMBULATORY SURGICAL FACILITIES",621493,"URGENT MEDICAL CARE CENTERS AND CLINICS (EXCEPT HOSPITALS), FREESTANDING",124175884,-86.5630939,35.9754476,NAVTEQ,2008Q1,BLOCKFACE,YES,TGS, 
26,4133,10194183,AMERICAS FAMILY DOCTORS WALK-IN CLINIC OF BRENTWOOD,615-373-2000,1195 OLD HICKORY BOULEVARD,SUITE 103,BRENTWOOD,TN,37027,4239,DAVIDSON,47037,LOC ON THE SOUTHEAST CORNER OF THE INTERSECTION OF OLD HICKORY BLVD & GRANNY WHITE PIKE., , , ,2009-02-03T00:00:00.000Z,PHONE,2009-02-03T00:00:00.000Z,MANUAL,"CRITICAL INFRASTRUCTURE, PDD-63; PUBLIC HEALTH; PRIMARY CARE FACILITIES (INCLUDING HOSPITALS); AMBULATORY SURGICAL FACILITIES",621493,"URGENT MEDICAL CARE CENTERS AND CLINICS (EXCEPT HOSPITALS), FREESTANDING",31418490,-86.815758,36.0395494,NAVTEQ,2008Q1,ONENTITY,YES,TGS,UC_3325
27,4162,11241522,SUMMIT EXPRESS CLINIC - DEANE HILL,865-558-9822,7211 WELLINGTON DRIVE, ,KNOXVILLE,TN,37919,5968,KNOX,47093,"LOC ON THE NORTHEAST SIDE OF WELLINGTON DR, APPR .1 MILES SOUTH OF KINGSTON PIKE.", , , ,2009-02-05T00:00:00.000Z,PHONE,2009-02-05T00:00:00.000Z,MANUAL,"CRITICAL INFRASTRUCTURE, PDD-63; PUBLIC HEALTH; PRIMARY CARE FACILITIES (INCLUDING HOSPITALS); AMBULATORY SURGICAL FACILITIES",621493,"URGENT MEDICAL CARE CENTERS AND CLINICS (EXCEPT HOSPITALS), FREESTANDING",24649171,-84.0256771,35.929565,NAVTEQ,2008Q1,ONENTITY,YES,TGS, 
28,4199,11531105,BRADLEY URGENT CARE,423-476-2464,104 STUART ROAD NORTHEAST, ,CLEVELAND,TN,37312,4803,BRADLEY,47011,LOCATED ON THE SOUTH CORNER OF STUART RD NE AND KEITH ST NW., , , ,2009-04-29T00:00:00.000Z,PHONE,2009-04-29T00:00:00.000Z,MANUAL,"CRITICAL INFRASTRUCTURE, PDD-63; PUBLIC HEALTH; PRIMARY CARE FACILITIES (INCLUDING HOSPITALS); AMBULATORY SURGICAL FACILITIES",621493,"URGENT MEDICAL CARE CENTERS AND CLINICS (EXCEPT HOSPITALS), FREESTANDING",98767559,-84.8456753,35.1998892,NAVTEQ,2008Q1,ONENTITY,YES,TGS, 
29,4220,11531136,WINCHESTER URGENT CARE,931-967-1514,2204 COWAN HIGHWAY, ,WINCHESTER,TN,37398,2627,FRANKLIN,47051,"LOCATED ON THE SOUTHWEST SIDE OF COWAN HWY, .3 MILES SOUTHEAST OF BYPASS RD.", , , ,2009-04-29T00:00:00.000Z,PHONE,2009-04-29T00:00:00.000Z,MANUAL,"CRITICAL INFRASTRUCTURE, PDD-63; PUBLIC HEALTH; PRIMARY CARE FACILITIES (INCLUDING HOSPITALS); AMBULATORY SURGICAL FACILITIES",621493,"URGENT MEDICAL CARE CENTERS AND CLINICS (EXCEPT HOSPITALS), FREESTANDING",124177554,-86.0769871,35.1728029,NAVTEQ,2008Q1,ONENTITY,YES,TGS, 
30,4229,11531158,EAST WOOD CLINIC - PARIS URGENT CARE,731-644-9362,1323 EAST WOOD STREET, ,PARIS,TN,38242,4421,HENRY,47079,LOCATED ON THE E CORNER OF E WOOD ST AND JANE ST, , , ,2009-04-30T00:00:00.000Z,PHONE,2009-04-30T00:00:00.000Z,MANUAL,"CRITICAL INFRASTRUCTURE, PDD-63; PUBLIC HEALTH; PRIMARY CARE FACILITIES (INCLUDING HOSPITALS); AMBULATORY SURGICAL FACILITIES",621493,"URGENT MEDICAL CARE CENTERS AND CLINICS (EXCEPT HOSPITALS), FREESTANDING",91114389,-88.2966078,36.3080376,NAVTEQ,2008Q1,ONENTITY,YES,TGS, 
31,4231,11531162,PHYSICIANS MEDICAL,931-297-5028,2893 HUNTSVILLE HIGHWAY, ,FAYETTEVILLE,TN,37334,6681,LINCOLN,47103,"LOCATED ON THE WEST SIDE OF US-231, .2 MILES SOUTH OF AIRPORT RD.", , , ,2009-04-30T00:00:00.000Z,PHONE,2009-04-30T00:00:00.000Z,MANUAL,"CRITICAL INFRASTRUCTURE, PDD-63; PUBLIC HEALTH; PRIMARY CARE FACILITIES (INCLUDING HOSPITALS); AMBULATORY SURGICAL FACILITIES",621493,"URGENT MEDICAL CARE CENTERS AND CLINICS (EXCEPT HOSPITALS), FREESTANDING",91121246,-86.5738555,35.0566764,NAVTEQ,2008Q1,ONENTITY,YES,TGS, 
32,4236,11531134,CROSSVILLE MEDICAL GROUP WALK IN CLINIC,931-456-3674,100 LANTANA ROAD,SUITE 109,CROSSVILLE,TN,38555,1915,CUMBERLAND,47035,LOCATED ON THE WEST CORNER OF WEST AVE AND LANTANA RD., , , ,2009-04-29T00:00:00.000Z,PHONE,2009-04-29T00:00:00.000Z,MANUAL,"CRITICAL INFRASTRUCTURE, PDD-63; PUBLIC HEALTH; PRIMARY CARE FACILITIES (INCLUDING HOSPITALS); AMBULATORY SURGICAL FACILITIES",621493,"URGENT MEDICAL CARE CENTERS AND CLINICS (EXCEPT HOSPITALS), FREESTANDING",91112688,-85.0266806,35.9449233,NAVTEQ,2008Q1,ONENTITY,YES,TGS, 
33,4238,11531172,GALLATIN URGENT CARE,615-452-6899,728 NASHVILLE PIKE, ,GALLATIN,TN,37066,3102,SUMNER,47165,LOCATED ON THE NW SIDE OF TN-6 .2 MI NE OF TN-109, , , ,2009-04-30T00:00:00.000Z,PHONE,2009-04-30T00:00:00.000Z,MANUAL,"CRITICAL INFRASTRUCTURE, PDD-63; PUBLIC HEALTH; PRIMARY CARE FACILITIES (INCLUDING HOSPITALS); AMBULATORY SURGICAL FACILITIES",621493,"URGENT MEDICAL CARE CENTERS AND CLINICS (EXCEPT HOSPITALS), FREESTANDING",98862707,-86.4658054,36.381141,NAVTEQ,2008Q1,ONENTITY,YES,TGS, 
34,4253,11531128,PHYSICIANS MEDICAL WALK IN CARE,931-728-8153,1300 MCARTHUR STREET, ,MANCHESTER,TN,37355,2426,COFFEE,47031,LOCATED ON THE SOUTHWEST CORNER OF WILLOW DR AND MCARTHUR ST., , , ,2009-04-29T00:00:00.000Z,PHONE,2009-04-29T00:00:00.000Z,MANUAL,"CRITICAL INFRASTRUCTURE, PDD-63; PUBLIC HEALTH; PRIMARY CARE FACILITIES (INCLUDING HOSPITALS); AMBULATORY SURGICAL FACILITIES",621493,"URGENT MEDICAL CARE CENTERS AND CLINICS (EXCEPT HOSPITALS), FREESTANDING",91106989,-86.0889537,35.4629454,NAVTEQ,2008Q1,ONENTITY,YES,TGS, 
35,4254,11531169,BICHON URGENT CARE,615-230-8887,180 NORTH BELVEDERE DRIVE, ,GALLATIN,TN,37066,5418,SUMNER,47165,"LOCATED ON THE SOUTHWEST SIDE OF N BELVEDERE DR, .3 MILES NORTHWEST OF NASHVILLE PIKE.", , , ,2009-04-30T00:00:00.000Z,PHONE,2009-04-30T00:00:00.000Z,MANUAL,"CRITICAL INFRASTRUCTURE, PDD-63; PUBLIC HEALTH; PRIMARY CARE FACILITIES (INCLUDING HOSPITALS); AMBULATORY SURGICAL FACILITIES",621493,"URGENT MEDICAL CARE CENTERS AND CLINICS (EXCEPT HOSPITALS), FREESTANDING",724545906,-86.4796261,36.3766441,NAVTEQ,2008Q1,ONENTITY,YES,TGS, 
36,4255,11531107,FIRST ASSIST URGENT CARE OF ELIZABETHTON,423-542-8929,314 ROGOSIN DRIVE, ,ELIZABETHTON,TN,37643,2904,CARTER,47019,"LOCATED ON THE SOUTHWEST SIDE OF ROGOSIN DR, .1 MILES NORTHWEST OF W G ST.", , , ,2009-04-29T00:00:00.000Z,PHONE,2009-04-29T00:00:00.000Z,MANUAL,"CRITICAL INFRASTRUCTURE, PDD-63; PUBLIC HEALTH; PRIMARY CARE FACILITIES (INCLUDING HOSPITALS); AMBULATORY SURGICAL FACILITIES",621493,"URGENT MEDICAL CARE CENTERS AND CLINICS (EXCEPT HOSPITALS), FREESTANDING",123876471,-82.239805,36.3449955,NAVTEQ,2008Q1,ONENTITY,YES,TGS, 
37,4256,11531139,PROMPT FAMILY CARE,423-587-2443,1621 WEST MORRIS BOULEVARD,SUITE B,MORRISTOWN,TN,37813,2968,HAMBLEN,47063,"LOCATED ON THE SOUTH SIDE OF W MORRIS BLVD, BETWEEN CARSON ST AND TN-66.", , , ,2009-04-29T00:00:00.000Z,PHONE,2009-04-29T00:00:00.000Z,MANUAL,"CRITICAL INFRASTRUCTURE, PDD-63; PUBLIC HEALTH; PRIMARY CARE FACILITIES (INCLUDING HOSPITALS); AMBULATORY SURGICAL FACILITIES",621493,"URGENT MEDICAL CARE CENTERS AND CLINICS (EXCEPT HOSPITALS), FREESTANDING",91134074,-83.3097382,36.2026449,NAVTEQ,2008Q1,ONENTITY,YES,TGS, 
38,4258,11531127,NATIONAL URGENT CARE CLINIC,931-455-4520,1802 NORTH JACKSON STREET,SUITE 8,TULLAHOMA,TN,37388,8218,COFFEE,47031,"LOCATED ON THE NORTHEAST SIDE OF N JACKSON ST, BETWEEN TN-269 AND WASHBURN RD.", , , ,2009-04-29T00:00:00.000Z,PHONE,2009-04-29T00:00:00.000Z,MANUAL,"CRITICAL INFRASTRUCTURE, PDD-63; PUBLIC HEALTH; PRIMARY CARE FACILITIES (INCLUDING HOSPITALS); AMBULATORY SURGICAL FACILITIES",621493,"URGENT MEDICAL CARE CENTERS AND CLINICS (EXCEPT HOSPITALS), FREESTANDING",709507843,-86.2282614,35.3822172,NAVTEQ,2008Q1,ONENTITY,YES,TGS, 
39,4266,11531131,FAMILY WALK IN CLINIC,931-707-7117,42 DOOLEY STREET, ,CROSSVILLE,TN,38555,4055,CUMBERLAND,47035,"LOCATED ON THE SOUTHEAST SIDE OF DOOLEY ST, BETWEEN N MAIN ST AND DOOLEY CT.", , , ,2009-04-29T00:00:00.000Z,PHONE,2009-04-29T00:00:00.000Z,MANUAL,"CRITICAL INFRASTRUCTURE, PDD-63; PUBLIC HEALTH; PRIMARY CARE FACILITIES (INCLUDING HOSPITALS); AMBULATORY SURGICAL FACILITIES",621493,"URGENT MEDICAL CARE CENTERS AND CLINICS (EXCEPT HOSPITALS), FREESTANDING",98666829,-85.0328103,35.9590181,NAVTEQ,2008Q1,ONENTITY,YES,TGS, 
40,4267,11531132,QUALITY MEDICAL CENTER,931-484-1100,15 WALKER HILL CIRCLE, ,CROSSVILLE,TN,38555, ,CUMBERLAND,47035,LOCATED ON THE NORTHEAST CORNER OF WALKER HILL ST AND N MAIN ST., , , ,2009-04-29T00:00:00.000Z,PHONE,2009-04-29T00:00:00.000Z,MANUAL,"CRITICAL INFRASTRUCTURE, PDD-63; PUBLIC HEALTH; PRIMARY CARE FACILITIES (INCLUDING HOSPITALS); AMBULATORY SURGICAL FACILITIES",621493,"URGENT MEDICAL CARE CENTERS AND CLINICS (EXCEPT HOSPITALS), FREESTANDING",98765267,-85.037399,35.9740409,NAVTEQ,2008Q1,ONENTITY,YES,TGS, 
41,4279,11531191,PROMPT FAMILY CARE - SOUTH,423-581-1479,1050 FRESHOUR STREET, ,MORRISTOWN,TN,37813,2210,HAMBLEN,47063,LOCATED ON THE WEST CORNER OF LINCOLN AVE AND FRESHOUR ST., , , ,2009-05-01T00:00:00.000Z,PHONE,2009-05-01T00:00:00.000Z,MANUAL,"CRITICAL INFRASTRUCTURE, PDD-63; PUBLIC HEALTH; PRIMARY CARE FACILITIES (INCLUDING HOSPITALS); AMBULATORY SURGICAL FACILITIES",621493,"URGENT MEDICAL CARE CENTERS AND CLINICS (EXCEPT HOSPITALS), FREESTANDING",98821568,-83.2863497,36.2034496,NAVTEQ,2008Q1,ONENTITY,YES,TGS, 
42,4284,11531174,NATIONAL URGENT CARE CLINIC,615-325-1442,421 NORTH BROADWAY STREET, ,PORTLAND,TN,37148,1750,SUMNER,47165,"LOCATED ON THE NORTHEAST SIDE OF N BROADWAY ST, BETWEEN REED ST AND FREEDOM DR.", , , ,2009-04-30T00:00:00.000Z,PHONE,2009-04-30T00:00:00.000Z,MANUAL,"CRITICAL INFRASTRUCTURE, PDD-63; PUBLIC HEALTH; PRIMARY CARE FACILITIES (INCLUDING HOSPITALS); AMBULATORY SURGICAL FACILITIES",621493,"URGENT MEDICAL CARE CENTERS AND CLINICS (EXCEPT HOSPITALS), FREESTANDING",98863278,-86.5196592,36.5864033,NAVTEQ,2008Q1,ONENTITY,YES,TGS, 
43,4285,11531175,FIRST FAMILY MEDICAL,731-925-1911,895 CLIFTON ROAD, ,SAVANNAH,TN,38372,1473,HARDIN,47071,LOCATED ON THE NORTH CORNER OF NORTHWOOD DR AND CLIFTON RD., , , ,2009-05-01T00:00:00.000Z,PHONE,2009-05-01T00:00:00.000Z,MANUAL,"CRITICAL INFRASTRUCTURE, PDD-63; PUBLIC HEALTH; PRIMARY CARE FACILITIES (INCLUDING HOSPITALS); AMBULATORY SURGICAL FACILITIES",621493,"URGENT MEDICAL CARE CENTERS AND CLINICS (EXCEPT HOSPITALS), FREESTANDING",91096688,-88.2304741,35.2379303,NAVTEQ,2008Q1,ONENTITY,YES,TGS, 
44,4290,11241420,TAKOMA MEDICAL ASSOCIATES,423-278-1700,438 EAST VANN ROAD,SUITE 100,GREENEVILLE,TN,37743,7202,GREENE,47059,LOCATED ON THE NE CORNER OF SHEPHARD DR AND E VANN RD, , , ,2009-02-04T00:00:00.000Z,PHONE,2009-02-04T00:00:00.000Z,MANUAL,"CRITICAL INFRASTRUCTURE, PDD-63; PUBLIC HEALTH; PRIMARY CARE FACILITIES (INCLUDING HOSPITALS); AMBULATORY SURGICAL FACILITIES",621493,"URGENT MEDICAL CARE CENTERS AND CLINICS (EXCEPT HOSPITALS), FREESTANDING",98646993,-82.8452682,36.1502247,NAVTEQ,2008Q1,ONENTITY,YES,TGS, 
45,4295,11531188,COMMUNITY CARE WALK IN CLINIC,865-590-0072,2317 SOUTH ROANE STREET, ,HARRIMAN,TN,37748,8653,ROANE,47145,"LOCATED ON THE SOUTHEAST SIDE OF S ROANE ST, BETWEEN BELL RD AND MARTIN RD.", , , ,2009-05-01T00:00:00.000Z,PHONE,2009-05-01T00:00:00.000Z,MANUAL,"CRITICAL INFRASTRUCTURE, PDD-63; PUBLIC HEALTH; PRIMARY CARE FACILITIES (INCLUDING HOSPITALS); AMBULATORY SURGICAL FACILITIES",621493,"URGENT MEDICAL CARE CENTERS AND CLINICS (EXCEPT HOSPITALS), FREESTANDING",98780092,-84.6147438,35.8945486,NAVTEQ,2008Q1,ONENTITY,YES,TGS, 
46,4296,11531192,WEST WILSON WALK IN CLINIC,615-754-2828,4024 MOUNT JULIET ROAD, ,MOUNT JULIET,TN,37122,3086,WILSON,47189,LOCATED ON THE NORTHWEST CORNER OF SUNSET CIR AND N MT JULIET RD., , , ,2009-05-04T00:00:00.000Z,PHONE,2009-05-04T00:00:00.000Z,MANUAL,"CRITICAL INFRASTRUCTURE, PDD-63; PUBLIC HEALTH; PRIMARY CARE FACILITIES (INCLUDING HOSPITALS); AMBULATORY SURGICAL FACILITIES",621493,"URGENT MEDICAL CARE CENTERS AND CLINICS (EXCEPT HOSPITALS), FREESTANDING",91128357,-86.5149107,36.2264498,NAVTEQ,2008Q1,ONENTITY,YES,TGS, 
47,4297,11531187,BARTLETT PLACE MEDICAL GROUP,423-587-2707,1907 WEST MORRIS BOULEVARD,SUITE B,MORRISTOWN,TN,37813,3866,HAMBLEN,47063,"LOCATED ON THE SOUTHWEST SIDE OF W MORRIS BLVD, BETWEEN MADEN DR AND S ECONOMY RD.", , , ,2009-05-01T00:00:00.000Z,PHONE,2009-05-01T00:00:00.000Z,MANUAL,"CRITICAL INFRASTRUCTURE, PDD-63; PUBLIC HEALTH; PRIMARY CARE FACILITIES (INCLUDING HOSPITALS); AMBULATORY SURGICAL FACILITIES",621493,"URGENT MEDICAL CARE CENTERS AND CLINICS (EXCEPT HOSPITALS), FREESTANDING",91134076,-83.3179165,36.2026304,NAVTEQ,2008Q1,ONENTITY,YES,TGS, 
48,4298,11531185,ATHENS FAMILY PRACTICE WALK IN CLINIC,423-263-6444,872 UNITED STATES HIGHWAY 411,UNIT G,ETOWAH,TN,37331, ,MCMINN,47107,"LOCATED ON THE WEST SIDE OF US-33, BETWEEN GRADY RD AND TN-30.", , , ,2009-05-01T00:00:00.000Z,PHONE,2009-05-01T00:00:00.000Z,MANUAL,"CRITICAL INFRASTRUCTURE, PDD-63; PUBLIC HEALTH; PRIMARY CARE FACILITIES (INCLUDING HOSPITALS); AMBULATORY SURGICAL FACILITIES",621493,"URGENT MEDICAL CARE CENTERS AND CLINICS (EXCEPT HOSPITALS), FREESTANDING",91146476,-84.5213401,35.3425608,NAVTEQ,2008Q1,ONENTITY,YES,TGS, 
49,4301,10194438,GREENEVILLE URGENT CARE,423-636-8891,1744 EAST ANDREW JOHNSON HIGHWAY, ,GREENEVILLE,TN,37745,4278,GREENE,47059,LOCATED ON THE S SIDE OF E ANDREW JOHNSON HWY BETWEEN LAFAYETTE ST AND CCU BLVD., , , ,2009-02-04T00:00:00.000Z,PHONE,2009-02-04T00:00:00.000Z,MANUAL,"CRITICAL INFRASTRUCTURE, PDD-63; PUBLIC HEALTH; PRIMARY CARE FACILITIES (INCLUDING HOSPITALS); AMBULATORY SURGICAL FACILITIES",621493,"URGENT MEDICAL CARE CENTERS AND CLINICS (EXCEPT HOSPITALS), FREESTANDING",91123325,-82.792043,36.1767598,NAVTEQ,2008Q1,ONENTITY,YES,TGS,UC_3330
50,4306,11531189,SUN MEDICAL EXPRESS WALK IN CLINIC - HENDERSONVILLE,615-264-4860,711 EAST MAIN STREET,SUITE 107,HENDERSONVILLE,TN,37075,2741,SUMNER,47165,SE SIDE OF GALLATIN RD IN BETWEEN SAUNDERSVLLE RD AND CAUDILL DR., , , ,2009-05-01T00:00:00.000Z,PHONE,2009-05-01T00:00:00.000Z,MANUAL,"CRITICAL INFRASTRUCTURE, PDD-63; PUBLIC HEALTH; PRIMARY CARE FACILITIES (INCLUDING HOSPITALS); AMBULATORY SURGICAL FACILITIES",621493,"URGENT MEDICAL CARE CENTERS AND CLINICS (EXCEPT HOSPITALS), FREESTANDING",91142279,-86.5627954,36.3256278,NAVTEQ,2008Q1,ONENTITY,YES,TGS, 
51,4307,11531202,DOCTORS OFFICE WALK IN CLINIC,615-453-3645,1430 WEST BADDOUR PARKWAY, ,LEBANON,TN,37087,2514,WILSON,47189,"LOCATED ON THE SOUTH SIDE OF W BADDOUR PKY, .4 MILES NORTHEAST OF W MAIN ST.", , , ,2009-05-04T00:00:00.000Z,PHONE,2009-05-04T00:00:00.000Z,MANUAL,"CRITICAL INFRASTRUCTURE, PDD-63; PUBLIC HEALTH; PRIMARY CARE FACILITIES (INCLUDING HOSPITALS); AMBULATORY SURGICAL FACILITIES",621493,"URGENT MEDICAL CARE CENTERS AND CLINICS (EXCEPT HOSPITALS), FREESTANDING",124179836,-86.3300518,36.2190915,NAVTEQ,2008Q1,ONENTITY,YES,TGS, 
52,4309,11531161,ADVANCED FAMILY AND URGENT CARE CLINIC,931-438-8260,4114 THORNTON TAYLOR PARKWAY, ,FAYETTEVILLE,TN,37334,2662,LINCOLN,47103,"LOCATED ON THE WEST SIDE OF US-231, BETWEEN US-64 AND ADAMS ST.", , , ,2009-04-30T00:00:00.000Z,PHONE,2009-04-30T00:00:00.000Z,MANUAL,"CRITICAL INFRASTRUCTURE, PDD-63; PUBLIC HEALTH; PRIMARY CARE FACILITIES (INCLUDING HOSPITALS); AMBULATORY SURGICAL FACILITIES",621493,"URGENT MEDICAL CARE CENTERS AND CLINICS (EXCEPT HOSPITALS), FREESTANDING",91121635,-86.5550558,35.1562121,NAVTEQ,2008Q1,ONENTITY,YES,TGS, 
53,4314,10422139,PARK MED URGENT CARE CENTER - OAK RIDGE,865-483-4040,115B SOUTH ILLINOIS AVENUE, ,OAK RIDGE,TN,37830,6202,ANDERSON,47001,LOC ON THE NORTHEAST SIDE OF THE T-INTERSECTION OF INCLINE LN & S ILLINOIS AVE., , , ,2009-02-02T00:00:00.000Z,PHONE,2009-02-02T00:00:00.000Z,MANUAL,"CRITICAL INFRASTRUCTURE, PDD-63; PUBLIC HEALTH; PRIMARY CARE FACILITIES (INCLUDING HOSPITALS); AMBULATORY SURGICAL FACILITIES",621493,"URGENT MEDICAL CARE CENTERS AND CLINICS (EXCEPT HOSPITALS), FREESTANDING",98867568,-84.2656216,36.0099226,NAVTEQ,2008Q1,ONENTITY,YES,TGS,UC_3319
54,4315,10194197,BEDFORD URGENT CARE,931-680-8910,1612 NORTH MAIN STREET, ,SHELBYVILLE,TN,37160,2391,BEDFORD,47003,"LOC ON THE SOUTH SIDE OF ROLLING RD, LESS THAN .1 MILES EAST OF N MAIN ST.", , , ,2009-02-02T00:00:00.000Z,PHONE,2009-02-03T00:00:00.000Z,MANUAL,"CRITICAL INFRASTRUCTURE, PDD-63; PUBLIC HEALTH; PRIMARY CARE FACILITIES (INCLUDING HOSPITALS); AMBULATORY SURGICAL FACILITIES",621493,"URGENT MEDICAL CARE CENTERS AND CLINICS (EXCEPT HOSPITALS), FREESTANDING",91098467,-86.4556863,35.5062233,NAVTEQ,2008Q1,ONENTITY,YES,TGS,UC_3361
55,4319,11531190,PORTLAND FAMILY CARE AND WALK IN CLINIC,615-323-1020,505 SOUTH BROADWAY, ,PORTLAND,TN,37148,1438,SUMNER,47165,"LOCATED ON THE WEST SIDE OF S BROADWAY, BETWEEN VILLAGE DR AND W KNIGHT ST.", , , ,2009-05-01T00:00:00.000Z,PHONE,2009-05-01T00:00:00.000Z,MANUAL,"CRITICAL INFRASTRUCTURE, PDD-63; PUBLIC HEALTH; PRIMARY CARE FACILITIES (INCLUDING HOSPITALS); AMBULATORY SURGICAL FACILITIES",621493,"URGENT MEDICAL CARE CENTERS AND CLINICS (EXCEPT HOSPITALS), FREESTANDING",123894038,-86.5140033,36.5744513,NAVTEQ,2008Q1,ONENTITY,YES,TGS, 
56,4320,11531204,FAMILY MEDICAL ASSOCIATES,615-444-6203,1407 WEST BADDOUR PARKWAY, ,LEBANON,TN,37087,2513,WILSON,47189,"LOCATED ON NORTH SIDE OF W BADDOUR PKY, BETWEEN W MAIN ST AND BABB DR.", , , ,2009-05-04T00:00:00.000Z,PHONE,2009-05-04T00:00:00.000Z,MANUAL,"CRITICAL INFRASTRUCTURE, PDD-63; PUBLIC HEALTH; PRIMARY CARE FACILITIES (INCLUDING HOSPITALS); AMBULATORY SURGICAL FACILITIES",621493,"URGENT MEDICAL CARE CENTERS AND CLINICS (EXCEPT HOSPITALS), FREESTANDING",124179835,-86.3293115,36.2198599,NAVTEQ,2008Q1,ONENTITY,YES,TGS, 
57,4322,11513049,PROHEALTH COMMUNITY CARE CLINIC - NASHVILLE,615-591-4750,393 WALLACE ROAD,BUILDING A 2ND FLOOR,NASHVILLE,TN,37211,4880,DAVIDSON,47037,LOC ON THE SOUTHEAST CORNER OF THE INTERSECTION OF WALLACE RD & NOLENSVILLE RD., , , ,2009-02-11T00:00:00.000Z,PHONE,2009-02-11T00:00:00.000Z,MANUAL,"CRITICAL INFRASTRUCTURE, PDD-63; PUBLIC HEALTH; PRIMARY CARE FACILITIES (INCLUDING HOSPITALS); AMBULATORY SURGICAL FACILITIES",621493,"URGENT MEDICAL CARE CENTERS AND CLINICS (EXCEPT HOSPITALS), FREESTANDING",115726149,-86.722468,36.0761411,NAVTEQ,2008Q1,ONENTITY,YES,TGS, 
58,4339,11531137,HEALTHSTAR PHYSICIANS URGENT CARE CLINIC,423-586-2410,420 WEST MORRIS BOULEVARD,SUITE 400B,MORRISTOWN,TN,37813,2282,HAMBLEN,47063,LOCATED ON THE NORTHEAST CORNER OF S JACKSON ST AND W MORRIS BLVD., , , ,2009-04-29T00:00:00.000Z,PHONE,2009-04-29T00:00:00.000Z,MANUAL,"CRITICAL INFRASTRUCTURE, PDD-63; PUBLIC HEALTH; PRIMARY CARE FACILITIES (INCLUDING HOSPITALS); AMBULATORY SURGICAL FACILITIES",621493,"URGENT MEDICAL CARE CENTERS AND CLINICS (EXCEPT HOSPITALS), FREESTANDING",91134068,-83.2948547,36.2103777,NAVTEQ,2008Q1,ONENTITY,YES,TGS, 
59,4340,11531166,FAMILY HEALTH GROUP WALK IN CLINIC,615-794-3414,5421 MAIN STREET,SUITE B,SPRING HILL,TN,37174,4410,MAURY,47119,LOCATED ON THE NW SIDE OF MAIN ST ABOUT .2 MI SW OF KEDRON RD., , , ,2009-04-30T00:00:00.000Z,PHONE,2009-04-30T00:00:00.000Z,MANUAL,"CRITICAL INFRASTRUCTURE, PDD-63; PUBLIC HEALTH; PRIMARY CARE FACILITIES (INCLUDING HOSPITALS); AMBULATORY SURGICAL FACILITIES",621493,"URGENT MEDICAL CARE CENTERS AND CLINICS (EXCEPT HOSPITALS), FREESTANDING",98857051,-86.9374685,35.7458989,NAVTEQ,2008Q1,ONENTITY,YES,TGS, 
60,4362,11241482,SUN MEDICAL EXPRESS WALK IN CLINIC - MURFREESBORO,615-217-6900,2445 MEMORIAL BOULEVARD,SUITE C,MURFREESBORO,TN,37129,5156,RUTHERFORD,47149,"LOC ON THE WEST SIDE OF MEMORIAL BLVD, LESS THAN .1 MILES NORTH OF CASTLEWOOD CT.", , , ,2009-02-04T00:00:00.000Z,PHONE,2009-02-04T00:00:00.000Z,MANUAL,"CRITICAL INFRASTRUCTURE, PDD-63; PUBLIC HEALTH; PRIMARY CARE FACILITIES (INCLUDING HOSPITALS); AMBULATORY SURGICAL FACILITIES",621493,"URGENT MEDICAL CARE CENTERS AND CLINICS (EXCEPT HOSPITALS), FREESTANDING",124167906,-86.3828221,35.8883717,NAVTEQ,2008Q1,ONENTITY,YES,TGS, 
61,4378,10422140,MADISON MINOR MEDICAL CENTER,615-868-9959,1114 GALLATIN PIKE NORTH, ,MADISON,TN,37115,2738,DAVIDSON,47037,LOC ON THE EAST SIDE OF THE T-INTERSECTION OF ONE MILE PKY & GALLATIN PIKE N., , , ,2009-02-03T00:00:00.000Z,PHONE,2009-02-03T00:00:00.000Z,MANUAL,"CRITICAL INFRASTRUCTURE, PDD-63; PUBLIC HEALTH; PRIMARY CARE FACILITIES (INCLUDING HOSPITALS); AMBULATORY SURGICAL FACILITIES",621493,"URGENT MEDICAL CARE CENTERS AND CLINICS (EXCEPT HOSPITALS), FREESTANDING",124174357,-86.708492,36.2791674,NAVTEQ,2008Q1,ONENTITY,YES,TGS,UC_3321
62,4394,10468048,GET WELL CLINICS,615-896-1022,2705 OLD FORT PARKWAY,SUITE G,MURFREESBORO,TN,37128,5154,RUTHERFORD,47149,ON THE S SIDE OF OLD FORT PKY BETWEEN ST ANDREWS DR AND GRESHAM LN, , , ,2008-03-14T00:00:00.000Z,PHONE,2008-03-14T00:00:00.000Z,MANUAL,"CRITICAL INFRASTRUCTURE, PDD-63; PUBLIC HEALTH; PRIMARY CARE FACILITIES (INCLUDING HOSPITALS); AMBULATORY SURGICAL FACILITIES",621493,"URGENT MEDICAL CARE CENTERS AND CLINICS (EXCEPT HOSPITALS), FREESTANDING",124170219,-86.4450692,35.8448861,NAVTEQ,2008Q1,BLOCKFACE,YES,TGS, 
63,4401,11513068,WALK IN MEDICAL CENTER OF COOL SPRINGS,615-771-8858,9040 CAROTHERS PARKWAY, ,FRANKLIN,TN,37067,6306,WILLIAMSON,47187,BETWEEN .1 AND .2 MILES SOUTH OF BAKER BRIDGE AVE ON THE EAST SIDE OF CAROTHERS PKY, , , ,2009-02-10T00:00:00.000Z,PHONE,2009-02-10T00:00:00.000Z,MANUAL,"CRITICAL INFRASTRUCTURE, PDD-63; PUBLIC HEALTH; PRIMARY CARE FACILITIES (INCLUDING HOSPITALS); AMBULATORY SURGICAL FACILITIES",621493,"URGENT MEDICAL CARE CENTERS AND CLINICS (EXCEPT HOSPITALS), FREESTANDING",721149833,-86.802733,35.9564212,NAVTEQ,2008Q1,ONENTITY,YES,TGS, 
64,4409,10468043,PHYSICIANS CARE - HIXSON,423-875-0700,4490 HIXSON PIKE, ,HIXSON,TN,37343,5038,HAMILTON,47065,LOC ON THE SOUTHEAST CORNER OF THE T-INTERSECTION OF HAMILL RD & HIXSON PIKE., , , ,2009-02-05T00:00:00.000Z,PHONE,2009-02-05T00:00:00.000Z,MANUAL,"CRITICAL INFRASTRUCTURE, PDD-63; PUBLIC HEALTH; PRIMARY CARE FACILITIES (INCLUDING HOSPITALS); AMBULATORY SURGICAL FACILITIES",621493,"URGENT MEDICAL CARE CENTERS AND CLINICS (EXCEPT HOSPITALS), FREESTANDING",87495146,-85.2493815,35.1181175,NAVTEQ,2008Q1,ONENTITY,YES,TGS, 
65,4454,10843902,CONCENTRA URGENT CARE - RIVERGATE,615-870-0143,1719 GALLATIN ROAD, ,MADISON,TN,37115,2123,DAVIDSON,47037,"LOC ON THE SOUTHWEST SIDE OF MYATT DR, LESS THAN .1 MILES SOUTHEAST OF GALLATIN RD.", , , ,2009-02-03T00:00:00.000Z,PHONE,2009-02-03T00:00:00.000Z,MANUAL,"CRITICAL INFRASTRUCTURE, PDD-63; PUBLIC HEALTH; PRIMARY CARE FACILITIES (INCLUDING HOSPITALS); AMBULATORY SURGICAL FACILITIES",621493,"URGENT MEDICAL CARE CENTERS AND CLINICS (EXCEPT HOSPITALS), FREESTANDING",31414943,-86.6987327,36.2954378,NAVTEQ,2008Q1,ONENTITY,YES,TGS, 
66,4489,10422152,HALLS WALK-IN MEDICAL CENTER,865-922-1400,7000 MAYNARDVILLE PIKE, ,KNOXVILLE,TN,37918,5736,KNOX,47093,EAST SIDE OF MAYNARDSVILLE PIKE APPROX 0.02 MILES NORTH OF CUNNINGHAM ROAD, , , ,2008-02-05T00:00:00.000Z,PHONE,2008-01-28T00:00:00.000Z,MANUAL,"CRITICAL INFRASTRUCTURE, PDD-63; PUBLIC HEALTH; PRIMARY CARE FACILITIES (INCLUDING HOSPITALS); AMBULATORY SURGICAL FACILITIES",621493,"URGENT MEDICAL CARE CENTERS AND CLINICS (EXCEPT HOSPITALS), FREESTANDING",24643798,-83.9275256,36.0751627,NAVTEQ,2008Q1,BLOCKFACE,YES,TGS,UC_3358
67,4497,10844084,CONCENTRA URGENT CARE - NASHVILLE SOUTH,615-837-4360,4300 SIDCO DRIVE, ,NASHVILLE,TN,37204,4537,DAVIDSON,47037,"LOC ON THE EAST SIDE OF SIDCO DR, LESS THAN .1 MILES SOUTH OF ELYSIAN FIELDS RD.", , , ,2009-02-04T00:00:00.000Z,PHONE,2009-02-04T00:00:00.000Z,MANUAL,"CRITICAL INFRASTRUCTURE, PDD-63; PUBLIC HEALTH; PRIMARY CARE FACILITIES (INCLUDING HOSPITALS); AMBULATORY SURGICAL FACILITIES",621493,"URGENT MEDICAL CARE CENTERS AND CLINICS (EXCEPT HOSPITALS), FREESTANDING",115722596,-86.7611434,36.083947,NAVTEQ,2008Q1,ONENTITY,YES,TGS, 
68,4518,10194187,PHYSICIANS URGENT CARE,931-525-5454,225 NORTH WILLOW AVENUE, ,COOKEVILLE,TN,38501,2335,PUTNAM,47141,LOC ON THE SOUTHEAST CORNER OF THE INTERSECTION OF W 3RD ST & N WILLOW AVE., , , ,2009-02-09T00:00:00.000Z,PHONE,2009-02-09T00:00:00.000Z,MANUAL,"CRITICAL INFRASTRUCTURE, PDD-63; PUBLIC HEALTH; PRIMARY CARE FACILITIES (INCLUDING HOSPITALS); AMBULATORY SURGICAL FACILITIES",621493,"URGENT MEDICAL CARE CENTERS AND CLINICS (EXCEPT HOSPITALS), FREESTANDING",91127965,-85.5120583,36.1672419,NAVTEQ,2008Q1,ONENTITY,YES,TGS,UC_3336
69,4519,10844081,CONCENTRA URGENT CARE - MURFREESBORO,615-895-4855,1203-A MEMORIAL BOULEVARD, ,MURFREESBORO,TN,37129,2420,RUTHERFORD,47149,"LOC ON THE NORTHWEST SIDE OF MEMORIAL BLVD, APPR .1 MILES SOUTHWEST OF W MCKNIGHT DR.", , , ,2009-02-04T00:00:00.000Z,PHONE,2009-02-04T00:00:00.000Z,MANUAL,"CRITICAL INFRASTRUCTURE, PDD-63; PUBLIC HEALTH; PRIMARY CARE FACILITIES (INCLUDING HOSPITALS); AMBULATORY SURGICAL FACILITIES",621493,"URGENT MEDICAL CARE CENTERS AND CLINICS (EXCEPT HOSPITALS), FREESTANDING",124171650,-86.3927993,35.8588527,NAVTEQ,2008Q1,ONENTITY,YES,TGS, 
70,4541,10422149,TENNESSEE URGENT CARE ASSOCIATES - WHITE BRIDGE ROAD FACILITY,615-356-6877,339 WHITE BRIDGE PIKE, ,NASHVILLE,TN,37209,3208,DAVIDSON,47037,LOCATED AT THE SW CORNER OF LENOX AVE AND WHITE BRIDGE PIKE., , , ,2008-01-25T00:00:00.000Z,PHONE,2008-01-25T00:00:00.000Z,MANUAL,"CRITICAL INFRASTRUCTURE, PDD-63; PUBLIC HEALTH; PRIMARY CARE FACILITIES (INCLUDING HOSPITALS); AMBULATORY SURGICAL FACILITIES",621493,"URGENT MEDICAL CARE CENTERS AND CLINICS (EXCEPT HOSPITALS), FREESTANDING",31396557,-86.8582834,36.1478121,NAVTEQ,2006Q4,ONENTITY,YES,TGS,UC_3344
71,4542,10468045,TENNESSEE URGENT CARE ASSOCIATES - RIVERGATE FACILITY,615-865-8500,1616 GALLATIN ROAD, ,MADISON,TN,37115,2104,DAVIDSON,47037,156 YARDS NORTHEAST OF ALTA LOMA RD ON THE NORTHWEST SIDE OF N GALLATIN RD., , , ,2008-03-14T00:00:00.000Z,PHONE,2008-03-14T00:00:00.000Z,MANUAL,"CRITICAL INFRASTRUCTURE, PDD-63; PUBLIC HEALTH; PRIMARY CARE FACILITIES (INCLUDING HOSPITALS); AMBULATORY SURGICAL FACILITIES",621493,"URGENT MEDICAL CARE CENTERS AND CLINICS (EXCEPT HOSPITALS), FREESTANDING",31414999,-86.7020686,36.2944971,NAVTEQ,2006Q4,ONENTITY,YES,TGS, 
72,4543,10192084,TENNESSEE URGENT CARE ASSOCIATES - SMYRNA FACILITY,615-355-1338,1332 HAZELWOOD DRIVE, ,SMYRNA,TN,37167,3922,RUTHERFORD,47149,"LOC ON THE SOUTHWEST SIDE OF OLD NASHVILLE HWY, LESS THAN .1 MILES NORTHWEST OF HAZELWOOD DR.", , , ,2009-02-04T00:00:00.000Z,PHONE,2009-02-04T00:00:00.000Z,MANUAL,"CRITICAL INFRASTRUCTURE, PDD-63; PUBLIC HEALTH; PRIMARY CARE FACILITIES (INCLUDING HOSPITALS); AMBULATORY SURGICAL FACILITIES",621493,"URGENT MEDICAL CARE CENTERS AND CLINICS (EXCEPT HOSPITALS), FREESTANDING",98812745,-86.5218633,35.9602664,NAVTEQ,2008Q1,ONENTITY,YES,TGS,UC_3327
73,4651,11241512,URGENT CARE FAMILY MEDICINE,423-648-6677,8644 EAST BRAINERD ROAD,SUITE B2/3,CHATTANOOGA,TN,37421,8325,HAMILTON,47065,"LOC ON THE SOUTH SIDE OF E BRAINERD RD, BETWEEN MORRIS LN & HURRICAN CREEK RD.", , , ,2009-02-05T00:00:00.000Z,PHONE,2009-02-05T00:00:00.000Z,MANUAL,"CRITICAL INFRASTRUCTURE, PDD-63; PUBLIC HEALTH; PRIMARY CARE FACILITIES (INCLUDING HOSPITALS); AMBULATORY SURGICAL FACILITIES",621493,"URGENT MEDICAL CARE CENTERS AND CLINICS (EXCEPT HOSPITALS), FREESTANDING",87504037,-85.1339493,34.9991556,NAVTEQ,2008Q1,ONENTITY,YES,TGS, 
74,4667,10844549,THE JACKSON CLINIC CONVENIENT CARE - SOUTH JACKSON,731-423-5585,1893 SOUTH HIGHLAND AVENUE, ,JACKSON,TN,38301,7799,MADISON,47113,"LOC ON THE WEST SIDE OF S HIGHLAND AVE, LESS THAN .1 MILES NORTH OF EDWARDS DR.", , , ,2009-02-06T00:00:00.000Z,PHONE,2009-02-06T00:00:00.000Z,MANUAL,"CRITICAL INFRASTRUCTURE, PDD-63; PUBLIC HEALTH; PRIMARY CARE FACILITIES (INCLUDING HOSPITALS); AMBULATORY SURGICAL FACILITIES",621493,"URGENT MEDICAL CARE CENTERS AND CLINICS (EXCEPT HOSPITALS), FREESTANDING",91100402,-88.8133269,35.5590247,NAVTEQ,2008Q1,ONENTITY,YES,TGS, 
75,4673,11241578,MADISON FAMILY WALK IN CLINIC,731-423-8600,1660 SOUTH HIGHLAND AVENUE,SUITE J,JACKSON,TN,38301,7797,MADISON,47113,LOC ON THE NORTHEAST CORNER OF THE T-INTERSECTION OF S HIGHLAND AVE & REBEL RD., , , ,2009-02-06T00:00:00.000Z,PHONE,2009-02-06T00:00:00.000Z,MANUAL,"CRITICAL INFRASTRUCTURE, PDD-63; PUBLIC HEALTH; PRIMARY CARE FACILITIES (INCLUDING HOSPITALS); AMBULATORY SURGICAL FACILITIES",621493,"URGENT MEDICAL CARE CENTERS AND CLINICS (EXCEPT HOSPITALS), FREESTANDING",98862573,-88.8132117,35.5656219,NAVTEQ,2008Q1,ONENTITY,YES,TGS, 
76,4684,11241557,SUMMIT EXPRESS CLINIC - FARRAGUT,865-671-6719,11416 GRIGSBY CHAPEL ROAD, ,FARRAGUT,TN,37934,1679,KNOX,47093,LOC ON THE SOUTHWEST CORNER OF THE INTERSECTION OF GRIGSBY CHAPEL RD & N CAMPBELL STATION RD., , , ,2009-02-06T00:00:00.000Z,PHONE,2009-02-06T00:00:00.000Z,MANUAL,"CRITICAL INFRASTRUCTURE, PDD-63; PUBLIC HEALTH; PRIMARY CARE FACILITIES (INCLUDING HOSPITALS); AMBULATORY SURGICAL FACILITIES",621493,"URGENT MEDICAL CARE CENTERS AND CLINICS (EXCEPT HOSPITALS), FREESTANDING",740454798,-84.1738041,35.8926849,NAVTEQ,2008Q1,ONENTITY,YES,TGS, 
77,4727,10422143,MED ONE,423-990-1400,1220 VOLUNTEER PARKWAY, ,BRISTOL,TN,37620,4628,SULLIVAN,47163,BETWEEN .10 AND .20 MILES SOUTH OF HOLSTON DR. ON THE WEST SIDE OF US-11E, , , ,2009-02-09T00:00:00.000Z,PHONE,2009-02-09T00:00:00.000Z,MANUAL,"CRITICAL INFRASTRUCTURE, PDD-63; PUBLIC HEALTH; PRIMARY CARE FACILITIES (INCLUDING HOSPITALS); AMBULATORY SURGICAL FACILITIES",621493,"URGENT MEDICAL CARE CENTERS AND CLINICS (EXCEPT HOSPITALS), FREESTANDING",90967517,-82.2018035,36.567088,NAVTEQ,2008Q1,ONENTITY,YES,TGS,UC_3326
78,4769,10468041,PHYSICIANS CARE - DAYTON,423-570-0252,445 CHICKAMAUGA DRIVE, ,DAYTON,TN,37321,4222,RHEA,47143,LOC ON THE SOUTH CORNER OF THE INTERSECTION OF RHEA COUNTY HWY & OLD WASHINGTON HWY., , , ,2009-02-09T00:00:00.000Z,PHONE,2009-02-09T00:00:00.000Z,MANUAL,"CRITICAL INFRASTRUCTURE, PDD-63; PUBLIC HEALTH; PRIMARY CARE FACILITIES (INCLUDING HOSPITALS); AMBULATORY SURGICAL FACILITIES",621493,"URGENT MEDICAL CARE CENTERS AND CLINICS (EXCEPT HOSPITALS), FREESTANDING",115706720,-85.0081004,35.4921565,NAVTEQ,2008Q1,ONENTITY,YES,TGS, 
79,4776,11513118,MUSIC VALLEY MEDICAL CENTER,615-777-9336,2416 MUSIC VALLEY DRIVE, ,NASHVILLE,TN,37214,1011,DAVIDSON,47037,"LOC ON THE NORTHWEST SIDE OF MUSIC VALLEY DR, BETWEEN .1 & .2 MILES NORTHEAST OF MCGAVOCK PIKE.", , , ,2009-02-11T00:00:00.000Z,PHONE,2009-02-11T00:00:00.000Z,MANUAL,"CRITICAL INFRASTRUCTURE, PDD-63; PUBLIC HEALTH; PRIMARY CARE FACILITIES (INCLUDING HOSPITALS); AMBULATORY SURGICAL FACILITIES",621493,"URGENT MEDICAL CARE CENTERS AND CLINICS (EXCEPT HOSPITALS), FREESTANDING",31419520,-86.6967707,36.2199022,NAVTEQ,2008Q1,ONENTITY,YES,TGS, 
80,2980,11531164,LAKEWAY URGENT CARE,865-271-0038,460 MEDICAL PARK DRIVE, ,LENOIR CITY,TN,37772, ,LOUDON,47105,LOCATED ON THE SE SIDE OF MEDICAL PARK DR .1 MI NE OF US-321, , , ,2009-04-30T00:00:00.000Z,PHONE,2009-04-30T00:00:00.000Z,MANUAL,"CRITICAL INFRASTRUCTURE, PDD-63; PUBLIC HEALTH; PRIMARY CARE FACILITIES (INCLUDING HOSPITALS); AMBULATORY SURGICAL FACILITIES",621493,"URGENT MEDICAL CARE CENTERS AND CLINICS (EXCEPT HOSPITALS), FREESTANDING", ,-84.2674284,35.8229426,TGS,2008Q1,ONENTITY,YES,TGS, 
81,2988,11531212,URGENT CARE AT PROVIDENCE,615-515-9111,5002 CROSSINGS CIRCLE,SUITE 100,MOUNT JULIET,TN,37122,8496,WILSON,47189,"LOCATED ON THE WEST SIDE OF CROSSINGS CIR, .1 MILES SOUTH OF ADAMS LN.", , , ,2009-05-04T00:00:00.000Z,PHONE,2009-05-04T00:00:00.000Z,MANUAL,"CRITICAL INFRASTRUCTURE, PDD-63; PUBLIC HEALTH; PRIMARY CARE FACILITIES (INCLUDING HOSPITALS); AMBULATORY SURGICAL FACILITIES",621493,"URGENT MEDICAL CARE CENTERS AND CLINICS (EXCEPT HOSPITALS), FREESTANDING", ,-86.5172046,36.1672262,TGS,2008Q1,ONENTITY,YES,TGS, 
82,2992,10470878,TRI-COUNTY FAMILY MEDICINE AND URGENT CARE,731-986-2213,600 RB WILSON DRIVE, ,HUNTINGDON,TN,38344,1726,CARROLL,47017,ON THE W SIDE OF RB WILSON DR BETWEEN CHICKASAW DR AND US-70, , , ,2008-03-17T00:00:00.000Z,PHONE,2008-03-17T00:00:00.000Z,MANUAL,"CRITICAL INFRASTRUCTURE, PDD-63; PUBLIC HEALTH; PRIMARY CARE FACILITIES (INCLUDING HOSPITALS); AMBULATORY SURGICAL FACILITIES",621493,"URGENT MEDICAL CARE CENTERS AND CLINICS (EXCEPT HOSPITALS), FREESTANDING",704935499,-88.4140092,36.0226264,NAVTEQ,2006Q4,ONENTITY,YES,TGS, 
83,2993,10467881,PHYSICIANS CARE - CLEVELAND,423-648-7699,1494 STUART ROAD NORTHEAST, ,CLEVELAND,TN,37312,5823,BRADLEY,47011,121 YARDS WEST OF OLD TASSO RD ON THE SOUTH SIDE OF STUART RD NE, , , ,2008-03-14T00:00:00.000Z,PHONE,2008-03-14T00:00:00.000Z,MANUAL,"CRITICAL INFRASTRUCTURE, PDD-63; PUBLIC HEALTH; PRIMARY CARE FACILITIES (INCLUDING HOSPITALS); AMBULATORY SURGICAL FACILITIES",621493,"URGENT MEDICAL CARE CENTERS AND CLINICS (EXCEPT HOSPITALS), FREESTANDING",98755843,-84.8279784,35.1879376,NAVTEQ,2006Q4,ONENTITY,YES,TGS, 
84,2994,10470872,URGENT CARE MEDICAL AND DIAGNOSTIC,615-851-1230,500 LONG HOLLOW PIKE,SUITE A,GOODLETTSVILLE,TN,37072,3447,SUMNER,47165,ON THE E CORNER OF THE INTERSECTION OF LONG HOLLOW PIKE AND ELLEN DR, , , ,2008-03-17T00:00:00.000Z,PHONE,2008-03-26T00:00:00.000Z,MANUAL,"CRITICAL INFRASTRUCTURE, PDD-63; PUBLIC HEALTH; PRIMARY CARE FACILITIES (INCLUDING HOSPITALS); AMBULATORY SURGICAL FACILITIES",621493,"URGENT MEDICAL CARE CENTERS AND CLINICS (EXCEPT HOSPITALS), FREESTANDING",98862051,-86.6963845,36.3303951,NAVTEQ,2006Q4,ONENTITY,YES,TGS, 
85,3065,11513085,FIRST ASSIST URGENT CARE OF GRAY,423-467-4802,203 GRAY COMMONS CIRCLE, ,GRAY,TN,37615,5407,WASHINGTON,47179,BETWEEN .1 AND .2 MILES SOUTHWEST OF BOB FITZ RD ON THE NORTHWEST SIDE OF GRAY COMMONS CIRCLE, , , ,2009-02-10T00:00:00.000Z,PHONE,2009-02-10T00:00:00.000Z,MANUAL,"CRITICAL INFRASTRUCTURE, PDD-63; PUBLIC HEALTH; PRIMARY CARE FACILITIES (INCLUDING HOSPITALS); AMBULATORY SURGICAL FACILITIES",621493,"URGENT MEDICAL CARE CENTERS AND CLINICS (EXCEPT HOSPITALS), FREESTANDING",115719114,-82.4886735,36.3989179,NAVTEQ,2008Q1,ONENTITY,YES,TGS, 
86,3066,11513070,FIRST ASSIST URGENT CARE OF KINGSPORT,423-246-7259,1101 EAST STONE DRIVE, ,KINGSPORT,TN,37660,3384,SULLIVAN,47163,ON THE SOUTHWEST SIDE OF THE INTERSECTION OF IDLE HOUR RD AND E STONE DR, , , ,2009-02-10T00:00:00.000Z,PHONE,2009-02-10T00:00:00.000Z,MANUAL,"CRITICAL INFRASTRUCTURE, PDD-63; PUBLIC HEALTH; PRIMARY CARE FACILITIES (INCLUDING HOSPITALS); AMBULATORY SURGICAL FACILITIES",621493,"URGENT MEDICAL CARE CENTERS AND CLINICS (EXCEPT HOSPITALS), FREESTANDING",27630365,-82.530653,36.5517084,NAVTEQ,2008Q1,ONENTITY,YES,TGS, 
87,3083,10844543,DOCTORS CARE - SANGO CLINIC,931-245-2400,2302 MADISON STREET, ,CLARKSVILLE,TN,37043,5453,MONTGOMERY,47125,"LOC ON THE SOUTH SIDE OF MADISON ST, APPR .1 MILES EAST OF US-41A-BYP.", , , ,2009-02-06T00:00:00.000Z,PHONE,2009-02-06T00:00:00.000Z,MANUAL,"CRITICAL INFRASTRUCTURE, PDD-63; PUBLIC HEALTH; PRIMARY CARE FACILITIES (INCLUDING HOSPITALS); AMBULATORY SURGICAL FACILITIES",621493,"URGENT MEDICAL CARE CENTERS AND CLINICS (EXCEPT HOSPITALS), FREESTANDING",123883026,-87.2707978,36.5067394,NAVTEQ,2008Q1,ONENTITY,YES,TGS, 
88,3112,11513019,SATELLITE MED,931-528-7312,1120 SAMS STREET, ,COOKEVILLE,TN,38506,4006,PUTNAM,47141,LOC ON THE SOUTHEAST CORNER OF THE INTERSECTION OF BUNKER HILL RD & SAM'S ST., , , ,2009-02-09T00:00:00.000Z,PHONE,2009-02-09T00:00:00.000Z,MANUAL,"CRITICAL INFRASTRUCTURE, PDD-63; PUBLIC HEALTH; PRIMARY CARE FACILITIES (INCLUDING HOSPITALS); AMBULATORY SURGICAL FACILITIES",621493,"URGENT MEDICAL CARE CENTERS AND CLINICS (EXCEPT HOSPITALS), FREESTANDING", ,-85.5060739,36.1341727,TGS,2008Q1,ONENTITY,YES,TGS, 
89,3115,11531106,CLEVELAND CARE FIRST,423-472-2273,1995 KEITH STREET NORTHWEST, ,CLEVELAND,TN,37311,4380,BRADLEY,47011,"LOCATED ON THE NORTHWEST SIDE OF KEITH ST NW, BETWEEN 17TH ST NW AND 20TH ST NW.", , , ,2009-04-29T00:00:00.000Z,PHONE,2009-04-29T00:00:00.000Z,MANUAL,"CRITICAL INFRASTRUCTURE, PDD-63; PUBLIC HEALTH; PRIMARY CARE FACILITIES (INCLUDING HOSPITALS); AMBULATORY SURGICAL FACILITIES",621493,"URGENT MEDICAL CARE CENTERS AND CLINICS (EXCEPT HOSPITALS), FREESTANDING",124142893,-84.8782043,35.1747605,NAVTEQ,2008Q1,ONENTITY,YES,TGS, 
90,3116,11531129,CUMBERLAND OCCUPATIONAL AND URGENT CARE CENTER,931-787-1990,118 BROWN AVENUE,SUITE 102,CROSSVILLE,TN,38555,7703,CUMBERLAND,47035,LOCATED ON THE WEST CORNER OF BROWN AVE AND LANTANA RD., , , ,2009-04-29T00:00:00.000Z,PHONE,2009-04-29T00:00:00.000Z,MANUAL,"CRITICAL INFRASTRUCTURE, PDD-63; PUBLIC HEALTH; PRIMARY CARE FACILITIES (INCLUDING HOSPITALS); AMBULATORY SURGICAL FACILITIES",621493,"URGENT MEDICAL CARE CENTERS AND CLINICS (EXCEPT HOSPITALS), FREESTANDING",98669150,-85.0286571,35.943255,NAVTEQ,2008Q1,ONENTITY,YES,TGS, 
91,3117,11531208,MEDICENTER AND ASSOCIATES,865-453-1122,1981 PARKWAY, ,PIGEON FORGE,TN,37863,4904,SEVIER,47155,LOCATED ON THE EAST CORNER OF PARKWAY AND LAZY LN., , , ,2009-05-04T00:00:00.000Z,PHONE,2009-05-04T00:00:00.000Z,MANUAL,"CRITICAL INFRASTRUCTURE, PDD-63; PUBLIC HEALTH; PRIMARY CARE FACILITIES (INCLUDING HOSPITALS); AMBULATORY SURGICAL FACILITIES",621493,"URGENT MEDICAL CARE CENTERS AND CLINICS (EXCEPT HOSPITALS), FREESTANDING",91139315,-83.5760623,35.8243472,NAVTEQ,2008Q1,ONENTITY,YES,TGS, 
92,3130,11513077,FIRST ASSIST URGENT CARE OF JONESBOROUGH,423-753-0721,395 FOREST CIRCLE,FOREST CENTRE,JONESBOROUGH,TN,37659, ,WASHINGTON,47179,ON THE SOUTHEAST CORNER OF TN-34 AND FOREST CIR, , , ,2009-02-10T00:00:00.000Z,PHONE,2009-02-10T00:00:00.000Z,MANUAL,"CRITICAL INFRASTRUCTURE, PDD-63; PUBLIC HEALTH; PRIMARY CARE FACILITIES (INCLUDING HOSPITALS); AMBULATORY SURGICAL FACILITIES",621493,"URGENT MEDICAL CARE CENTERS AND CLINICS (EXCEPT HOSPITALS), FREESTANDING",98825444,-82.4609228,36.3006727,NAVTEQ,2008Q1,ONENTITY,YES,TGS, 
93,3139,10468050,PHYSICIANS CARE - SOUTH PITTSBURG,423-648-4460,625 EAST 12TH STREET, ,SOUTH PITTSBURG,TN,37380,1630,MARION,47115,LOC ON THE NORTHWEST CORNER OF THE INTERSECTION OF US-72 & E 12TH ST., , , ,2009-02-06T00:00:00.000Z,PHONE,2009-02-06T00:00:00.000Z,MANUAL,"CRITICAL INFRASTRUCTURE, PDD-63; PUBLIC HEALTH; PRIMARY CARE FACILITIES (INCLUDING HOSPITALS); AMBULATORY SURGICAL FACILITIES",621493,"URGENT MEDICAL CARE CENTERS AND CLINICS (EXCEPT HOSPITALS), FREESTANDING",98787874,-85.7054341,34.9981561,NAVTEQ,2008Q1,ONENTITY,YES,TGS, 
94,3182,11241468,COOL SPRINGS INTERNAL MEDICINE AND PEDIATRICS CLINIC PROFESSIONAL LIMITED LIABILITY COMPANY,615-376-8195,1607 WESTGATE CIRCLE, ,BRENTWOOD,TN,37027,8075,WILLIAMSON,47187,"FROM THE EASTERNMOST INTERSECTION OF MOORES LANE AND WESTGATE CIR, TRAVEL NORTH ON WESTGATE CIRCLE APPROX .2 MILES, FACILITY IS ON THE WEST SIDE", , , ,2009-02-04T00:00:00.000Z,PHONE,2009-02-04T00:00:00.000Z,MANUAL,"CRITICAL INFRASTRUCTURE, PDD-63; PUBLIC HEALTH; PRIMARY CARE FACILITIES (INCLUDING HOSPITALS); AMBULATORY SURGICAL FACILITIES",621493,"URGENT MEDICAL CARE CENTERS AND CLINICS (EXCEPT HOSPITALS), FREESTANDING",91039907,-86.8036426,35.9683528,NAVTEQ,2008Q1,ONENTITY,YES,TGS, 
95,3185,10422151,HARDING MEDICAL CENTER,615-834-2170,4126 NOLENSVILLE PIKE, ,NASHVILLE,TN,37211,4717,DAVIDSON,47037,LOC ON THE NORTH SIDE OF WALLACE RD LESS THAN .1 MILES NE OF THE INTERSECTION WITH NOLENSVILLE PIKE., , , ,2009-02-04T00:00:00.000Z,PHONE,2009-02-04T00:00:00.000Z,MANUAL,"CRITICAL INFRASTRUCTURE, PDD-63; PUBLIC HEALTH; PRIMARY CARE FACILITIES (INCLUDING HOSPITALS); AMBULATORY SURGICAL FACILITIES",621493,"URGENT MEDICAL CARE CENTERS AND CLINICS (EXCEPT HOSPITALS), FREESTANDING",31401791,-86.7247889,36.0781563,NAVTEQ,2008Q1,ONENTITY,YES,TGS,UC_3349
96,3190,10194191,STONE URGENT CARE AND OCCUPATIONAL MEDICINE PHYSICIANS CARE,615-315-0037,3708 NOLENSVILLE ROAD, ,NASHVILLE,TN,37211,3329,DAVIDSON,47037,"LOC ON THE NORTHEAST SIDE OF NOLENSVILLE RD, LESS THAN .1 MILES SOUTH OF WHEELER AVE.", , , ,2009-02-03T00:00:00.000Z,PHONE,2009-02-03T00:00:00.000Z,MANUAL,"CRITICAL INFRASTRUCTURE, PDD-63; PUBLIC HEALTH; PRIMARY CARE FACILITIES (INCLUDING HOSPITALS); AMBULATORY SURGICAL FACILITIES",621493,"URGENT MEDICAL CARE CENTERS AND CLINICS (EXCEPT HOSPITALS), FREESTANDING",31401236,-86.7366319,36.0948671,NAVTEQ,2008Q1,ONENTITY,YES,TGS,UC_3347
97,3195,11241528,PATMOS EMERGICLINIC,423-639-9970,1231 TUSCULUM BOULEVARD, ,GREENEVILLE,TN,37745,4137,GREENE,47059,"LOCATED ON THE N SIDE OF TUSCULUM BLVD, LESS THEN .1 MILE SW OF SHERWOOD LN.", , , ,2009-02-05T00:00:00.000Z,PHONE,2009-02-05T00:00:00.000Z,MANUAL,"CRITICAL INFRASTRUCTURE, PDD-63; PUBLIC HEALTH; PRIMARY CARE FACILITIES (INCLUDING HOSPITALS); AMBULATORY SURGICAL FACILITIES",621493,"URGENT MEDICAL CARE CENTERS AND CLINICS (EXCEPT HOSPITALS), FREESTANDING",123927835,-82.7997485,36.1720628,NAVTEQ,2008Q1,ONENTITY,YES,TGS, 
98,3223,10194195,THE JACKSON CLINIC CONVENIENT CARE - NORTH JACKSON,731-664-1375,2859 UNITED STATES HIGHWAY 45 BYPASS, ,JACKSON,TN,38305, ,MADISON,47113,"LOC ON THE NORTHWEST SIDE OF US-45-BYP FRONTAGE RD, APPR .1 MILES NORTH OF OIL WELL RD.", , , ,2009-02-06T00:00:00.000Z,PHONE,2009-02-06T00:00:00.000Z,MANUAL,"CRITICAL INFRASTRUCTURE, PDD-63; PUBLIC HEALTH; PRIMARY CARE FACILITIES (INCLUDING HOSPITALS); AMBULATORY SURGICAL FACILITIES",621493,"URGENT MEDICAL CARE CENTERS AND CLINICS (EXCEPT HOSPITALS), FREESTANDING",98803620,-88.8575584,35.6911912,NAVTEQ,2008Q1,ONENTITY,YES,TGS,UC_3356
99,3224,10194196,THE JACKSON CLINIC CONVENIENT CARE,731-422-0276,648 WEST FOREST AVENUE, ,JACKSON,TN,38301,3902,MADISON,47113,LOC ON THE SOUTHEAST CORNER OF THE INTERSECTION OF W FOREST AVE & LINDA VISTA DR., , , ,2009-02-06T00:00:00.000Z,PHONE,2009-02-06T00:00:00.000Z,MANUAL,"CRITICAL INFRASTRUCTURE, PDD-63; PUBLIC HEALTH; PRIMARY CARE FACILITIES (INCLUDING HOSPITALS); AMBULATORY SURGICAL FACILITIES",621493,"URGENT MEDICAL CARE CENTERS AND CLINICS (EXCEPT HOSPITALS), FREESTANDING",98802232,-88.8297371,35.6351264,NAVTEQ,2008Q1,ONENTITY,YES,TGS,UC_3357
100,3241,11531422,SUN MEDICAL EXPRESS WALK IN CLINIC - NOLENSVILLE,615-941-8768,10644 CONCORD ROAD, ,BRENTWOOD,TN,37027,8811,DAVIDSON,47037,LOCATED ON THE WEST CORNER OF NOLENSVILLE PIKE AND CONCORD RD, , , ,2009-05-22T00:00:00.000Z,PHONE,2009-05-22T00:00:00.000Z,MANUAL,"CRITICAL INFRASTRUCTURE, PDD-63; PUBLIC HEALTH; PRIMARY CARE FACILITIES (INCLUDING HOSPITALS); AMBULATORY SURGICAL FACILITIES",621493,"URGENT MEDICAL CARE CENTERS AND CLINICS (EXCEPT HOSPITALS), FREESTANDING",31403445,-86.6913657,35.9973802,NAVTEQ,2008Q1,ONENTITY,YES,TGS, 
101,3257,11241575,FAMILY CARE WALK IN CLINIC,731-660-6915,176 WEST UNIVERSITY PARKWAY,SUITE C,JACKSON,TN,38305,1618,MADISON,47113,"LOC ON THE SOUTH SIDE OF W UNIVERSITY PKY, APPR .1 MILES WEST OF CHEYENNE DR.", , , ,2009-02-06T00:00:00.000Z,PHONE,2009-02-06T00:00:00.000Z,MANUAL,"CRITICAL INFRASTRUCTURE, PDD-63; PUBLIC HEALTH; PRIMARY CARE FACILITIES (INCLUDING HOSPITALS); AMBULATORY SURGICAL FACILITIES",621493,"URGENT MEDICAL CARE CENTERS AND CLINICS (EXCEPT HOSPITALS), FREESTANDING",98678334,-88.8362257,35.695809,NAVTEQ,2008Q1,ONENTITY,YES,TGS, 
102,3261,10194188,DOCTORS CARE - SAINT BETHLEHEM CLINIC,931-645-1564,2320 WILMA RUDOLPH BOULEVARD, ,CLARKSVILLE,TN,37040,8960,MONTGOMERY,47125,"LOC ON THE WEST SIDE OF US-79, BETWEEN .1 AND .2 MILES SOUTHWEST OF TN-374.", , , ,2009-02-06T00:00:00.000Z,PHONE,2009-02-06T00:00:00.000Z,MANUAL,"CRITICAL INFRASTRUCTURE, PDD-63; PUBLIC HEALTH; PRIMARY CARE FACILITIES (INCLUDING HOSPITALS); AMBULATORY SURGICAL FACILITIES",621493,"URGENT MEDICAL CARE CENTERS AND CLINICS (EXCEPT HOSPITALS), FREESTANDING",124176470,-87.3047293,36.5702938,NAVTEQ,2008Q1,ONENTITY,YES,TGS,UC_3337
103,3284,11241475,MIDSTATE FAMILY MEDICINE AND URGENT CARE,615-893-1230,2706 OLD FORT PARKWAY, ,MURFREESBORO,TN,37128,4156,RUTHERFORD,47149,"LOC ON THE NORTH SIDE OF OLD FORT PKY, LESS THAN .1 MILES WEST OF ST ANDREWS DR.", , , ,2009-02-04T00:00:00.000Z,PHONE,2009-02-04T00:00:00.000Z,MANUAL,"CRITICAL INFRASTRUCTURE, PDD-63; PUBLIC HEALTH; PRIMARY CARE FACILITIES (INCLUDING HOSPITALS); AMBULATORY SURGICAL FACILITIES",621493,"URGENT MEDICAL CARE CENTERS AND CLINICS (EXCEPT HOSPITALS), FREESTANDING",124170219,-86.4459366,35.8457138,NAVTEQ,2008Q1,ONENTITY,YES,TGS, 
104,3352,10194179,FIRST ASSIST URGENT CARE OF JOHNSON CITY,423-915-5000,1019 WEST OAKLAND AVENUE, ,JOHNSON CITY,TN,37604,2357,WASHINGTON,47179,ENTRANCE IS LOCATED ON THE SOUTHEAST SIDE OF W OAKLAND AVE BETWEEN MARKETPLACE BLVD AND HANOVER RD, , , ,2009-02-10T00:00:00.000Z,PHONE,2009-02-10T00:00:00.000Z,MANUAL,"CRITICAL INFRASTRUCTURE, PDD-63; PUBLIC HEALTH; PRIMARY CARE FACILITIES (INCLUDING HOSPITALS); AMBULATORY SURGICAL FACILITIES",621493,"URGENT MEDICAL CARE CENTERS AND CLINICS (EXCEPT HOSPITALS), FREESTANDING",98610339,-82.40226,36.348846,NAVTEQ,2008Q1,ONENTITY,YES,TGS,UC_3315
105,3353,10194193,EAST TOWNE URGENT CARE,865-545-8700,4711 CENTERLINE DRIVE, ,KNOXVILLE,TN,37917,1403,KNOX,47093,LOCATED ON THE NORTHWEST SIDE OF CENTERLINE DRIVE BETWEEN WASHINGTON PIKE SOUTH MALL RD., , , ,2008-04-04T00:00:00.000Z,PHONE,2008-04-04T00:00:00.000Z,MANUAL,"CRITICAL INFRASTRUCTURE, PDD-63; PUBLIC HEALTH; PRIMARY CARE FACILITIES (INCLUDING HOSPITALS); AMBULATORY SURGICAL FACILITIES",621493,"URGENT MEDICAL CARE CENTERS AND CLINICS (EXCEPT HOSPITALS), FREESTANDING",124161203,-83.883744,36.0300237,NAVTEQ,2006Q4,ONENTITY,YES,TGS,UC_3351
106,3379,10422153,PARK MED URGENT CARE CENTER - KINGSTON PIKE,865-690-1801,8350 KINGSTON PIKE, ,KNOXVILLE,TN,37919,5449,KNOX,47093,"LOC ON THE SOUTHEAST SIDE OF KINGSTON PIKE, APPR .1 MILES NORTHEAST OF GALLAHER VIEW RD NW.", , , ,2009-02-05T00:00:00.000Z,PHONE,2009-02-05T00:00:00.000Z,MANUAL,"CRITICAL INFRASTRUCTURE, PDD-63; PUBLIC HEALTH; PRIMARY CARE FACILITIES (INCLUDING HOSPITALS); AMBULATORY SURGICAL FACILITIES",621493,"URGENT MEDICAL CARE CENTERS AND CLINICS (EXCEPT HOSPITALS), FREESTANDING",24664014,-84.0566771,35.9232941,NAVTEQ,2008Q1,ONENTITY,YES,TGS,UC_3360
107,3414,10192851,GRACE CLINIC,423-266-7111,9448 DAYTON PIKE, ,SODDY DAISY,TN,37379,4750,HAMILTON,47065,LOCATED ON THE SOUTHEAST SIDE OF DAYTON PIKE BETWEEN HARRISON LANE AND PORTER STREET., , , ,2006-12-18T00:00:00.000Z,PHONE,2006-12-18T00:00:00.000Z,MANUAL,"CRITICAL INFRASTRUCTURE, PDD-63; PUBLIC HEALTH; PRIMARY CARE FACILITIES (INCLUDING HOSPITALS); AMBULATORY SURGICAL FACILITIES",621493,"URGENT MEDICAL CARE CENTERS AND CLINICS (EXCEPT HOSPITALS), FREESTANDING",87491536,-85.1970476,35.2378204,NAVTEQ,2006Q3,ONENTITY,YES,TGS,UC_3367
108,3415,11531167,PROHEALTH COMMUNITY CARE CLINIC - COLUMBIA,931-381-7567,180 BEAR CREEK PIKE,SUITE A,COLUMBIA,TN,38401,1814,MAURY,47119,LOCATED ON THE SOUTHWEST CORNER OF BEAR CREEK PIKE AND TOM J HITCH PKY., , , ,2009-04-30T00:00:00.000Z,PHONE,2009-04-30T00:00:00.000Z,MANUAL,"CRITICAL INFRASTRUCTURE, PDD-63; PUBLIC HEALTH; PRIMARY CARE FACILITIES (INCLUDING HOSPITALS); AMBULATORY SURGICAL FACILITIES",621493,"URGENT MEDICAL CARE CENTERS AND CLINICS (EXCEPT HOSPITALS), FREESTANDING",98857692,-87.0107979,35.6344386,NAVTEQ,2008Q1,ONENTITY,NO,TGS, 
109,3421,10192058,HOLSTON MEDICAL GROUP,423-230-2420,111 WEST STONE DRIVE, ,KINGSPORT,TN,37660,6027,SULLIVAN,47163,"LOCATED ON NORTH SIDE OF WEST STONE DR, .12 MILE EAST OF BLOOMINGDALE PIKE", , , ,2006-12-18T00:00:00.000Z,PHONE,2006-12-18T00:00:00.000Z,MANUAL,"CRITICAL INFRASTRUCTURE, PDD-63; PUBLIC HEALTH; PRIMARY CARE FACILITIES (INCLUDING HOSPITALS); AMBULATORY SURGICAL FACILITIES",621493,"URGENT MEDICAL CARE CENTERS AND CLINICS (EXCEPT HOSPITALS), FREESTANDING",90964316,-82.5527623,36.5598691,NAVTEQ,2006Q3,ONENTITY,YES,TGS,UC_3354
110,3436,11531184,ATHENS WALK IN CLINIC,423-745-2266,2324 CONGRESS PARKWAY, ,ATHENS,TN,37303,2820,MCMINN,47107,LOCATED ON THE NORTHEAST CORNER OF CONGRESS PKY AND LARK ST., , , ,2009-05-01T00:00:00.000Z,PHONE,2009-05-01T00:00:00.000Z,MANUAL,"CRITICAL INFRASTRUCTURE, PDD-63; PUBLIC HEALTH; PRIMARY CARE FACILITIES (INCLUDING HOSPITALS); AMBULATORY SURGICAL FACILITIES",621493,"URGENT MEDICAL CARE CENTERS AND CLINICS (EXCEPT HOSPITALS), FREESTANDING",123915060,-84.6362711,35.4417715,NAVTEQ,2008Q1,ONENTITY,YES,TGS, 
111,3502,11513016,COOKEVILLE FAMILY MEDICINE AND URGENT CARE,931-520-0148,106 NORTH WALNUT AVENUE, ,COOKEVILLE,TN,38501,8700,PUTNAM,47141,LOC ON THE NORTHWEST CORNER OF THE INTERSECTION OF N WALNUT AVE & W 1ST ST., , , ,2009-02-09T00:00:00.000Z,PHONE,2009-02-09T00:00:00.000Z,MANUAL,"CRITICAL INFRASTRUCTURE, PDD-63; PUBLIC HEALTH; PRIMARY CARE FACILITIES (INCLUDING HOSPITALS); AMBULATORY SURGICAL FACILITIES",621493,"URGENT MEDICAL CARE CENTERS AND CLINICS (EXCEPT HOSPITALS), FREESTANDING",98786224,-85.5063092,36.1656459,NAVTEQ,2008Q1,ONENTITY,YES,TGS, 
112,3507,10844548,RAPID CARE CLINIC,931-762-7232,129 NORTH LOCUST AVENUE, ,LAWRENCEBURG,TN,38464,3757,LAWRENCE,47099,LOC ON THE SOUTHWEST SIDE OF THE INTERSECTION OF E GAINES STREET AND N LOCUST AVE, , , ,2009-02-09T00:00:00.000Z,PHONE,2009-02-09T00:00:00.000Z,MANUAL,"CRITICAL INFRASTRUCTURE, PDD-63; PUBLIC HEALTH; PRIMARY CARE FACILITIES (INCLUDING HOSPITALS); AMBULATORY SURGICAL FACILITIES",621493,"URGENT MEDICAL CARE CENTERS AND CLINICS (EXCEPT HOSPITALS), FREESTANDING",91107303,-87.3313438,35.2406127,NAVTEQ,2008Q1,ONENTITY,YES,TGS, 
113,3508,10196537,FIRST CARE MEDICAL CENTER,865-687-2277,108 WEST INSKIP DRIVE,SUITE B,KNOXVILLE,TN,37912,4058,KNOX,47093,LOC ON THE EAST CORNER OF THE INTERSECTION OF I-75 & W INSKIP DR., , , ,2009-02-02T00:00:00.000Z,PHONE,2009-02-02T00:00:00.000Z,MANUAL,"CRITICAL INFRASTRUCTURE, PDD-63; PUBLIC HEALTH; PRIMARY CARE FACILITIES (INCLUDING HOSPITALS); AMBULATORY SURGICAL FACILITIES",621493,"URGENT MEDICAL CARE CENTERS AND CLINICS (EXCEPT HOSPITALS), FREESTANDING",124160586,-83.9669231,36.0074423,NAVTEQ,2008Q1,ONENTITY,YES,TGS,UC_3317
114,3561,10844083,CONCENTRA URGENT CARE - NASHVILLE CENTRAL,615-321-5698,342 21ST AVENUE NORTH, ,NASHVILLE,TN,37203,1848,DAVIDSON,47037,LOC ON THE SOUTHEAST CORNER OF THE INTERSECTION OF CHARLOTTE AVE & 21ST AVE N., , , ,2009-02-04T00:00:00.000Z,PHONE,2009-02-04T00:00:00.000Z,MANUAL,"CRITICAL INFRASTRUCTURE, PDD-63; PUBLIC HEALTH; PRIMARY CARE FACILITIES (INCLUDING HOSPITALS); AMBULATORY SURGICAL FACILITIES",621493,"URGENT MEDICAL CARE CENTERS AND CLINICS (EXCEPT HOSPITALS), FREESTANDING",31395552,-86.8051033,36.1564364,NAVTEQ,2008Q1,ONENTITY,YES,TGS, 
115,3573,11241558,SUMMIT EXPRESS CLINIC - FOUNTAIN CITY,865-687-7704,103 MIDLAKE DRIVE, ,KNOXVILLE,TN,37918,3039,KNOX,47093,LOC ON THE NORTH SIDE OF MIDLAKE DR LESS THAN .1 MILE SW FROM INTERSECTION WITH FOUNTAIN RD., , , ,2009-02-06T00:00:00.000Z,PHONE,2009-02-06T00:00:00.000Z,MANUAL,"CRITICAL INFRASTRUCTURE, PDD-63; PUBLIC HEALTH; PRIMARY CARE FACILITIES (INCLUDING HOSPITALS); AMBULATORY SURGICAL FACILITIES",621493,"URGENT MEDICAL CARE CENTERS AND CLINICS (EXCEPT HOSPITALS), FREESTANDING",24644804,-83.9340314,36.0352914,NAVTEQ,2008Q1,ONENTITY,YES,TGS, 
116,3793,10422147,PHYSICIANS CARE - HAMILTON PLACE,423-899-3008,2021 HAMILTON PLACE BOULEVARD, ,CHATTANOOGA,TN,37421,6046,HAMILTON,47065,LOC ON THE WEST SIDE OF HAMILTON PLACE BLVD. APPROX .2 MILES NORTHEAST OF THE INTERSECTION WITH FRANKS RD, , , ,2009-02-05T00:00:00.000Z,PHONE,2009-02-05T00:00:00.000Z,MANUAL,"CRITICAL INFRASTRUCTURE, PDD-63; PUBLIC HEALTH; PRIMARY CARE FACILITIES (INCLUDING HOSPITALS); AMBULATORY SURGICAL FACILITIES",621493,"URGENT MEDICAL CARE CENTERS AND CLINICS (EXCEPT HOSPITALS), FREESTANDING",87500520,-85.1635536,35.0343657,NAVTEQ,2008Q1,ONENTITY,YES,TGS,UC_3333
117,3887,10422142,PARK MED URGENT CARE CENTER - ALCOA,865-982-3409,117 GILL STREET, ,ALCOA,TN,37701,2672,BLOUNT,47009,LOC ON THE SOUTH CORNER OF THE T-INTERSECTION OF GILL ST & S HALL RD., , , ,2009-02-03T00:00:00.000Z,PHONE,2009-02-03T00:00:00.000Z,MANUAL,"CRITICAL INFRASTRUCTURE, PDD-63; PUBLIC HEALTH; PRIMARY CARE FACILITIES (INCLUDING HOSPITALS); AMBULATORY SURGICAL FACILITIES",621493,"URGENT MEDICAL CARE CENTERS AND CLINICS (EXCEPT HOSPITALS), FREESTANDING",98702382,-83.9700436,35.7629554,NAVTEQ,2008Q1,ONENTITY,YES,TGS,UC_3323
118,3889,10468042,PHYSICIANS CARE - EAST RIDGE,423-894-3589,403 MCBRIEN ROAD, ,EAST RIDGE,TN,37412,3223,HAMILTON,47065,LOC ON THE SOUTHEAST CORNER OF THE INTERSECTION OF S TERRACE RD & MCBRIEN RD., , , ,2009-02-05T00:00:00.000Z,PHONE,2009-02-05T00:00:00.000Z,MANUAL,"CRITICAL INFRASTRUCTURE, PDD-63; PUBLIC HEALTH; PRIMARY CARE FACILITIES (INCLUDING HOSPITALS); AMBULATORY SURGICAL FACILITIES",621493,"URGENT MEDICAL CARE CENTERS AND CLINICS (EXCEPT HOSPITALS), FREESTANDING",87506964,-85.2269659,35.004142,NAVTEQ,2008Q1,ONENTITY,YES,TGS, 
119,3890,10844547,PHYSICIANS QUALITY CARE,731-984-8400,2075 PLEASANT PLAINS EXTENDED, ,JACKSON,TN,38305, ,MADISON,47113,"LOCATED ON THE SW SIDE OF PLEASANT PLAINS EXTENDED, APPR .1 MILES SOUTH OF COUNTRY CLUB LN.", , , ,2009-02-06T00:00:00.000Z,PHONE,2009-02-06T00:00:00.000Z,MANUAL,"CRITICAL INFRASTRUCTURE, PDD-63; PUBLIC HEALTH; PRIMARY CARE FACILITIES (INCLUDING HOSPITALS); AMBULATORY SURGICAL FACILITIES",621493,"URGENT MEDICAL CARE CENTERS AND CLINICS (EXCEPT HOSPITALS), FREESTANDING",98683075,-88.8610271,35.6698366,NAVTEQ,2008Q1,BLOCKFACE,YES,TGS, 
120,3902,10194178,AMERICARE URGENT CARE,931-507-2273,1012 SOUTH CHANCERY STREET, ,MCMINNVILLE,TN,37110,3704,WARREN,47177,ON THE WEST SIDE OF S CHANCERY ST BETWEEN VIOLA RD AND SMITH ST, , , ,2009-02-10T00:00:00.000Z,PHONE,2009-02-23T00:00:00.000Z,MANUAL,"CRITICAL INFRASTRUCTURE, PDD-63; PUBLIC HEALTH; PRIMARY CARE FACILITIES (INCLUDING HOSPITALS); AMBULATORY SURGICAL FACILITIES",621493,"URGENT MEDICAL CARE CENTERS AND CLINICS (EXCEPT HOSPITALS), FREESTANDING",98870169,-85.7874548,35.6639336,NAVTEQ,2008Q1,ONENTITY,YES,TGS,UC_3312
121,3913,10422141,DICKSON MEDICAL ASSOCIATES,615-446-5121,113 EAST COLLEGE STREET,HORIZON MEDICAL CENTER,DICKSON,TN,37055,1827,DICKSON,47043,LOCATED ON THE NW SIDE OF UNITED STATES HIGHWAY 70 BRANCH EAST 0.40 MILES SW OF HENSLEE DR., , , ,2008-01-25T00:00:00.000Z,PHONE,2008-01-25T00:00:00.000Z,MANUAL,"CRITICAL INFRASTRUCTURE, PDD-63; PUBLIC HEALTH; PRIMARY CARE FACILITIES (INCLUDING HOSPITALS); AMBULATORY SURGICAL FACILITIES",621493,"URGENT MEDICAL CARE CENTERS AND CLINICS (EXCEPT HOSPITALS), FREESTANDING",704959354,-87.3757053,36.0733143,NAVTEQ,2006Q4,ONENTITY,YES,TGS,UC_3322
122,3914,10468044,PHYSICIANS CARE - LENOIR CITY,865-988-0096,785 UNITED STATES HIGHWAY 321,SUITE 24,LENOIR CITY,TN,37771, ,LOUDON,47105,ON THE EAST SIDE OF US HWY 321 BETWEEN PEARL DR AND SIMPSON DR, , , ,2008-03-14T00:00:00.000Z,PHONE,2008-03-14T00:00:00.000Z,MANUAL,"CRITICAL INFRASTRUCTURE, PDD-63; PUBLIC HEALTH; PRIMARY CARE FACILITIES (INCLUDING HOSPITALS); AMBULATORY SURGICAL FACILITIES",621493,"URGENT MEDICAL CARE CENTERS AND CLINICS (EXCEPT HOSPITALS), FREESTANDING",91130187,-84.2638784,35.8152747,NAVTEQ,2008Q1,BLOCKFACE,YES,TGS, 
123,3929,11513071,PINEY FLATS URGENT CARE MEDICINE,423-538-5202,6070 UNITED STATES HIGHWAY 11 EAST, ,PINEY FLATS,TN,37686, ,SULLIVAN,47163,BETWEEN .20 AND .30 MILES SOUTHWEST OF ALLISON RD ON THE NORTHWEST SIDE OF US-11E, , , ,2009-02-10T00:00:00.000Z,PHONE,2009-02-10T00:00:00.000Z,MANUAL,"CRITICAL INFRASTRUCTURE, PDD-63; PUBLIC HEALTH; PRIMARY CARE FACILITIES (INCLUDING HOSPITALS); AMBULATORY SURGICAL FACILITIES",621493,"URGENT MEDICAL CARE CENTERS AND CLINICS (EXCEPT HOSPITALS), FREESTANDING",98839533,-82.3198081,36.4240391,NAVTEQ,2008Q1,ONENTITY,YES,TGS, 
124,3958,11241426,NORTHSIDE URGENT CARE INCORPORATED,931-684-1990,1701 NORTH MAIN STREET, ,SHELBYVILLE,TN,37160,2303,BEDFORD,47003,LOC ON THE WEST SIDE OF US-231 LESS THAN .1 MILES NORTH OF THE INTERSECTION WITH ROLLING RD., , , ,2009-02-03T00:00:00.000Z,PHONE,2009-02-03T00:00:00.000Z,MANUAL,"CRITICAL INFRASTRUCTURE, PDD-63; PUBLIC HEALTH; PRIMARY CARE FACILITIES (INCLUDING HOSPITALS); AMBULATORY SURGICAL FACILITIES",621493,"URGENT MEDICAL CARE CENTERS AND CLINICS (EXCEPT HOSPITALS), FREESTANDING",98870238,-86.4575218,35.5074906,NAVTEQ,2008Q1,ONENTITY,YES,TGS, 
125,3966,10844082,CONCENTRA URGENT CARE - ELM HILL,615-883-6995,2531 ELM HILL PIKE, ,NASHVILLE,TN,37214,3154,DAVIDSON,47037,LOC ON THE SOUTHWEST CORNER OF THE INTERSECTION OF ELM HILL PIKE & ROYAL PKY., , , ,2009-02-04T00:00:00.000Z,PHONE,2009-02-04T00:00:00.000Z,MANUAL,"CRITICAL INFRASTRUCTURE, PDD-63; PUBLIC HEALTH; PRIMARY CARE FACILITIES (INCLUDING HOSPITALS); AMBULATORY SURGICAL FACILITIES",621493,"URGENT MEDICAL CARE CENTERS AND CLINICS (EXCEPT HOSPITALS), FREESTANDING",31413425,-86.6774655,36.1513005,NAVTEQ,2008Q1,ONENTITY,YES,TGS, 
126,3970,11513086,THERESA BUCKS URGENT CARE AND WALK IN CLINIC,931-507-9355,1100 NEW SMITHVILLE HIGHWAY,SUITE 123,MCMINNVILLE,TN,37110, ,WARREN,47177,EAST SIDE OF NEW SMITHVILLE HWY APPROX .1 MILES SOUTH OF US-70S, , , ,2009-02-10T00:00:00.000Z,PHONE,2009-02-10T00:00:00.000Z,MANUAL,"CRITICAL INFRASTRUCTURE, PDD-63; PUBLIC HEALTH; PRIMARY CARE FACILITIES (INCLUDING HOSPITALS); AMBULATORY SURGICAL FACILITIES",621493,"URGENT MEDICAL CARE CENTERS AND CLINICS (EXCEPT HOSPITALS), FREESTANDING",91150656,-85.7786252,35.6989564,NAVTEQ,2008Q1,ONENTITY,YES,TGS, 
127,3987,11513075,PRO CARE URGENT CARE CENTER,423-378-9006,1501 EAST STONE DRIVE, ,KINGSPORT,TN,37660,4132,SULLIVAN,47163,ON THE NORTHEAST SIDE OF E STONE DR BETWEEN BOWATER DR AND GRILLS ST, , , ,2009-02-10T00:00:00.000Z,PHONE,2009-02-10T00:00:00.000Z,MANUAL,"CRITICAL INFRASTRUCTURE, PDD-63; PUBLIC HEALTH; PRIMARY CARE FACILITIES (INCLUDING HOSPITALS); AMBULATORY SURGICAL FACILITIES",621493,"URGENT MEDICAL CARE CENTERS AND CLINICS (EXCEPT HOSPITALS), FREESTANDING",90993919,-82.522679,36.5488823,NAVTEQ,2008Q1,ONENTITY,YES,TGS, 
128,3988,11513139,FAMILY MEDICAL CARE CENTER,865-687-3622,7331 TAZEWELL PIKE, ,CORRYTON,TN,37721,3516,KNOX,47093,"LOC ON THE WEST SIDE OF TAZEWELL PIKE, APPR .2 MILES NORTH OF FAIRVIEW RD.", , , ,2009-02-11T00:00:00.000Z,PHONE,2009-02-11T00:00:00.000Z,MANUAL,"CRITICAL INFRASTRUCTURE, PDD-63; PUBLIC HEALTH; PRIMARY CARE FACILITIES (INCLUDING HOSPITALS); AMBULATORY SURGICAL FACILITIES",621493,"URGENT MEDICAL CARE CENTERS AND CLINICS (EXCEPT HOSPITALS), FREESTANDING",24659353,-83.855328,36.1174337,NAVTEQ,2008Q1,ONENTITY,YES,TGS, 
129,3989,11513141,WESTBROOK MEDICAL CENTER PROFESSIONAL LIMITED LIABILITY COMPANY,865-769-2600,7328 MIDDLEBROOK PIKE, ,KNOXVILLE,TN,37909,3139,KNOX,47093,"LOC ON THE SOUTH SIDE OF MIDDLEBROOK PIKE, LESS THAN .1 MILES WEST OF VANOSDALE RD.", , , ,2009-02-11T00:00:00.000Z,PHONE,2009-02-11T00:00:00.000Z,MANUAL,"CRITICAL INFRASTRUCTURE, PDD-63; PUBLIC HEALTH; PRIMARY CARE FACILITIES (INCLUDING HOSPITALS); AMBULATORY SURGICAL FACILITIES",621493,"URGENT MEDICAL CARE CENTERS AND CLINICS (EXCEPT HOSPITALS), FREESTANDING",124162173,-84.0386858,35.9406071,NAVTEQ,2008Q1,ONENTITY,YES,TGS, 
130,4000,11513145,BARFIELD CLINIC PROFESSIONAL LIMITED LIABILITY COMPANY,615-895-3600,2910 SOUTH CHURCH STREET, ,MURFREESBORO,TN,37127,7147,RUTHERFORD,47149,LOC ON THE WEST SIDE OF THE T-INTERSECTION OF RUNNYMEADE DR & S CHURCH ST., , , ,2009-02-11T00:00:00.000Z,PHONE,2009-02-11T00:00:00.000Z,MANUAL,"CRITICAL INFRASTRUCTURE, PDD-63; PUBLIC HEALTH; PRIMARY CARE FACILITIES (INCLUDING HOSPITALS); AMBULATORY SURGICAL FACILITIES",621493,"URGENT MEDICAL CARE CENTERS AND CLINICS (EXCEPT HOSPITALS), FREESTANDING",124171293,-86.4019953,35.7908294,NAVTEQ,2008Q1,ONENTITY,YES,TGS, 
